{
"type": "FeatureCollection",
"name": "ciudades",
"crs": { "type": "name", "properties": { "name": "urn:ogc:def:crs:OGC:1.3:CRS84" } },
"features": [
{ "type": "Feature", "properties": { "Id": 3690608, "Name": "Zorritos", "Lat": -3.68046, "Long": -80.67819, "Class": "PPLA3", "field_11": "24", "field_12": 2402, "field_13": 240201, "Population": 12261, "field_17": 7 }, "geometry": { "type": "Point", "coordinates": [ -80.67819, -3.68046 ] } },
{ "type": "Feature", "properties": { "Id": 3690654, "Name": "Yurimaguas", "Lat": -5.90181, "Long": -76.12234, "Class": "PPLA3", "field_11": "16", "field_12": 1602, "field_13": 160201, "Population": 41827, "field_17": 143 }, "geometry": { "type": "Point", "coordinates": [ -76.12234, -5.90181 ] } },
{ "type": "Feature", "properties": { "Id": 3690875, "Name": "Virú", "Lat": -8.41554, "Long": -78.75201, "Class": "PPL", "field_11": "13", "field_12": 1312, "field_13": 131201, "Population": 20774, "field_17": 75 }, "geometry": { "type": "Point", "coordinates": [ -78.75201, -8.41554 ] } },
{ "type": "Feature", "properties": { "Id": 3690935, "Name": "Vice", "Lat": -5.41667, "Long": -80.78333, "Class": "PPLA3", "field_11": "20", "field_12": 2008, "field_13": 200805, "Population": 12915, "field_17": 31 }, "geometry": { "type": "Point", "coordinates": [ -80.78333, -5.41667 ] } },
{ "type": "Feature", "properties": { "Id": 3691094, "Name": "Uchiza", "Lat": -8.45917, "Long": -76.46333, "Class": "PPLA3", "field_11": "22", "field_12": 2210, "field_13": 221005, "Population": 17742, "field_17": 563 }, "geometry": { "type": "Point", "coordinates": [ -76.46333, -8.45917 ] } },
{ "type": "Feature", "properties": { "Id": 3691148, "Name": "Tumbes", "Lat": -3.55592, "Long": -80.44258, "Class": "PPLA", "field_11": "24", "field_12": 2401, "field_13": 240101, "Population": 96946, "field_17": 4 }, "geometry": { "type": "Point", "coordinates": [ -80.44258, -3.55592 ] } },
{ "type": "Feature", "properties": { "Id": 3691175, "Name": "Trujillo", "Lat": -8.11599, "Long": -79.02998, "Class": "PPLA", "field_11": "13", "field_12": 1301, "field_13": 130101, "Population": 919899, "field_17": 31 }, "geometry": { "type": "Point", "coordinates": [ -79.02998, -8.11599 ] } },
{ "type": "Feature", "properties": { "Id": 3691324, "Name": "Tocache", "Lat": -8.1877, "Long": -76.52046, "Class": "PPL", "field_11": "22", "field_12": 2210, "field_13": 221001, "Population": 29029, "field_17": 498 }, "geometry": { "type": "Point", "coordinates": [ -76.52046, -8.1877 ] } },
{ "type": "Feature", "properties": { "Id": 3691348, "Name": "Tingo María", "Lat": -9.29532, "Long": -75.99574, "Class": "PPL", "field_11": "10", "field_12": 1006, "field_13": 100601, "Population": 53177, "field_17": 647 }, "geometry": { "type": "Point", "coordinates": [ -75.99574, -9.29532 ] } },
{ "type": "Feature", "properties": { "Id": 3691530, "Name": "Tambo Grande", "Lat": -4.92694, "Long": -80.34472, "Class": "PPLA3", "field_11": "20", "field_12": 2001, "field_13": 200114, "Population": 30033, "field_17": 69 }, "geometry": { "type": "Point", "coordinates": [ -80.34472, -4.92694 ] } },
{ "type": "Feature", "properties": { "Id": 3691582, "Name": "Talara", "Lat": -4.57722, "Long": -81.27194, "Class": "PPLA3", "field_11": "20", "field_12": 2007, "field_13": 200701, "Population": 99074, "field_17": 12 }, "geometry": { "type": "Point", "coordinates": [ -81.27194, -4.57722 ] } },
{ "type": "Feature", "properties": { "Id": 3691638, "Name": "Tabalosos", "Lat": -6.35, "Long": -76.68333, "Class": "PPLA3", "field_11": "22", "field_12": 2205, "field_13": 220510, "Population": 14744, "field_17": 1162 }, "geometry": { "type": "Point", "coordinates": [ -76.68333, -6.35 ] } },
{ "type": "Feature", "properties": { "Id": 3691674, "Name": "Sullana", "Lat": -4.90389, "Long": -80.68528, "Class": "PPLA3", "field_11": "20", "field_12": 2006, "field_13": 200601, "Population": 160789, "field_17": 60 }, "geometry": { "type": "Point", "coordinates": [ -80.68528, -4.90389 ] } },
{ "type": "Feature", "properties": { "Id": 3691712, "Name": "Soritor", "Lat": -6.13917, "Long": -77.10389, "Class": "PPLA3", "field_11": "22", "field_12": 2201, "field_13": 220105, "Population": 10858, "field_17": 884 }, "geometry": { "type": "Point", "coordinates": [ -77.10389, -6.13917 ] } },
{ "type": "Feature", "properties": { "Id": 3691954, "Name": "Sechura", "Lat": -5.55694, "Long": -80.82222, "Class": "PPLA3", "field_11": "20", "field_12": 2008, "field_13": 200801, "Population": 23020, "field_17": 15 }, "geometry": { "type": "Point", "coordinates": [ -80.82222, -5.55694 ] } },
{ "type": "Feature", "properties": { "Id": 3692029, "Name": "Saposoa", "Lat": -6.93395, "Long": -76.77158, "Class": "PPLA3", "field_11": "22", "field_12": 2204, "field_13": 220401, "Population": 14894, "field_17": 311 }, "geometry": { "type": "Point", "coordinates": [ -76.77158, -6.93395 ] } },
{ "type": "Feature", "properties": { "Id": 3692073, "Name": "Santiago de Cao", "Lat": -7.95889, "Long": -79.23917, "Class": "PPL", "field_11": "13", "field_12": 1302, "field_13": 130207, "Population": 21982, "field_17": 18 }, "geometry": { "type": "Point", "coordinates": [ -79.23917, -7.95889 ] } },
{ "type": "Feature", "properties": { "Id": 3692116, "Name": "Santa Rosa", "Lat": -6.75772, "Long": -79.82747, "Class": "PPL", "field_11": "14", "field_12": 1401, "field_13": 140101, "Population": 10625, "field_17": 33 }, "geometry": { "type": "Point", "coordinates": [ -79.82747, -6.75772 ] } },
{ "type": "Feature", "properties": { "Id": 3692310, "Name": "San Pedro de Lloc", "Lat": -7.4289, "Long": -79.50416, "Class": "PPL", "field_11": "13", "field_12": 1307, "field_13": 130701, "Population": 16250, "field_17": 48 }, "geometry": { "type": "Point", "coordinates": [ -79.50416, -7.4289 ] } },
{ "type": "Feature", "properties": { "Id": 3692462, "Name": "San Juan", "Lat": -3.77611, "Long": -73.28139, "Class": "PPL", "field_11": "16", "field_12": 1601, "field_13": 160113, "Population": 78153, "field_17": 99 }, "geometry": { "type": "Point", "coordinates": [ -73.28139, -3.77611 ] } },
{ "type": "Feature", "properties": { "Id": 3692667, "Name": "Saña", "Lat": -6.91888, "Long": -79.582, "Class": "PPL", "field_11": "14", "field_12": 1401, "field_13": 140115, "Population": 39200, "field_17": 65 }, "geometry": { "type": "Point", "coordinates": [ -79.582, -6.91888 ] } },
{ "type": "Feature", "properties": { "Id": 3692729, "Name": "Salinera Colán", "Lat": -5.03333, "Long": -81.06667, "Class": "PPL", "field_11": "20", "field_12": 2005, "field_13": null, "Population": 14210, "field_17": 1 }, "geometry": { "type": "Point", "coordinates": [ -81.06667, -5.03333 ] } },
{ "type": "Feature", "properties": { "Id": 3692747, "Name": "Salaverry", "Lat": -8.221, "Long": -78.97698, "Class": "PPLA3", "field_11": "13", "field_12": 1301, "field_13": 130109, "Population": 10066, "field_17": 8 }, "geometry": { "type": "Point", "coordinates": [ -78.97698, -8.221 ] } },
{ "type": "Feature", "properties": { "Id": 3692863, "Name": "Rioja", "Lat": -6.05675, "Long": -77.16651, "Class": "PPLA3", "field_11": "22", "field_12": 2208, "field_13": 220801, "Population": 25057, "field_17": 831 }, "geometry": { "type": "Point", "coordinates": [ -77.16651, -6.05675 ] } },
{ "type": "Feature", "properties": { "Id": 3693057, "Name": "Querecotillo", "Lat": -4.83778, "Long": -80.64556, "Class": "PPLA3", "field_11": "20", "field_12": 2006, "field_13": 200607, "Population": 25396, "field_17": 53 }, "geometry": { "type": "Point", "coordinates": [ -80.64556, -4.83778 ] } },
{ "type": "Feature", "properties": { "Id": 3693191, "Name": "Puerto Santa", "Lat": -8.98979, "Long": -78.64603, "Class": "PPL", "field_11": "02", "field_12": 218, "field_13": 21808, "Population": 14066, "field_17": 2 }, "geometry": { "type": "Point", "coordinates": [ -78.64603, -8.98979 ] } },
{ "type": "Feature", "properties": { "Id": 3693305, "Name": "Pueblo Nuevo", "Lat": -5.71667, "Long": -79.88333, "Class": "PPL", "field_11": "14", "field_12": 1403, "field_13": 140308, "Population": 12471, "field_17": 170 }, "geometry": { "type": "Point", "coordinates": [ -79.88333, -5.71667 ] } },
{ "type": "Feature", "properties": { "Id": 3693345, "Name": "Pucallpa", "Lat": -8.37915, "Long": -74.55387, "Class": "PPLA", "field_11": "25", "field_12": 2501, "field_13": 250101, "Population": 326040, "field_17": 155 }, "geometry": { "type": "Point", "coordinates": [ -74.55387, -8.37915 ] } },
{ "type": "Feature", "properties": { "Id": 3693528, "Name": "Piura", "Lat": -5.18192, "Long": -80.65715, "Class": "PPLA", "field_11": "20", "field_12": 2001, "field_13": 200101, "Population": 484475, "field_17": 29 }, "geometry": { "type": "Point", "coordinates": [ -80.65715, -5.18192 ] } },
{ "type": "Feature", "properties": { "Id": 3693584, "Name": "Pimentel", "Lat": -6.83667, "Long": -79.93417, "Class": "PPLA3", "field_11": "14", "field_12": 1401, "field_13": 140112, "Population": 15552, "field_17": 7 }, "geometry": { "type": "Point", "coordinates": [ -79.93417, -6.83667 ] } },
{ "type": "Feature", "properties": { "Id": 3693645, "Name": "Picsi", "Lat": -6.71778, "Long": -79.76972, "Class": "PPLA3", "field_11": "14", "field_12": 1401, "field_13": 140111, "Population": 43610, "field_17": 41 }, "geometry": { "type": "Point", "coordinates": [ -79.76972, -6.71778 ] } },
{ "type": "Feature", "properties": { "Id": 3693826, "Name": "Pátapo", "Lat": -6.73315, "Long": -79.6359, "Class": "PPL", "field_11": "14", "field_12": 1401, "field_13": 140117, "Population": 15270, "field_17": 103 }, "geometry": { "type": "Point", "coordinates": [ -79.6359, -6.73315 ] } },
{ "type": "Feature", "properties": { "Id": 3694112, "Name": "Paita", "Lat": -5.08917, "Long": -81.11444, "Class": "PPLA3", "field_11": "20", "field_12": 2005, "field_13": 200501, "Population": 56151, "field_17": 16 }, "geometry": { "type": "Point", "coordinates": [ -81.11444, -5.08917 ] } },
{ "type": "Feature", "properties": { "Id": 3694119, "Name": "Paiján", "Lat": -7.73291, "Long": -79.3015, "Class": "PPL", "field_11": "13", "field_12": 1302, "field_13": 130205, "Population": 21128, "field_17": 93 }, "geometry": { "type": "Point", "coordinates": [ -79.3015, -7.73291 ] } },
{ "type": "Feature", "properties": { "Id": 3694178, "Name": "Pacasmayo", "Lat": -7.40056, "Long": -79.57139, "Class": "PPLA3", "field_11": "13", "field_12": 1307, "field_13": 130704, "Population": 29165, "field_17": 12 }, "geometry": { "type": "Point", "coordinates": [ -79.57139, -7.40056 ] } },
{ "type": "Feature", "properties": { "Id": 3694212, "Name": "Otuzco", "Lat": -7.9, "Long": -78.58333, "Class": "PPLA3", "field_11": "13", "field_12": 1306, "field_13": 130601, "Population": 10134, "field_17": 3006 }, "geometry": { "type": "Point", "coordinates": [ -78.58333, -7.9 ] } },
{ "type": "Feature", "properties": { "Id": 3694436, "Name": "Nauta", "Lat": -4.50561, "Long": -73.58026, "Class": "PPLA3", "field_11": "16", "field_12": 1603, "field_13": 160301, "Population": 14646, "field_17": 117 }, "geometry": { "type": "Point", "coordinates": [ -73.58026, -4.50561 ] } },
{ "type": "Feature", "properties": { "Id": 3694564, "Name": "Moyobamba", "Lat": -6.03441, "Long": -76.97423, "Class": "PPLA", "field_11": "22", "field_12": 2201, "field_13": 220101, "Population": 50073, "field_17": 741 }, "geometry": { "type": "Point", "coordinates": [ -76.97423, -6.03441 ] } },
{ "type": "Feature", "properties": { "Id": 3694569, "Name": "Motupe", "Lat": -6.15194, "Long": -79.71417, "Class": "PPLA3", "field_11": "14", "field_12": 1403, "field_13": 140307, "Population": 13681, "field_17": 135 }, "geometry": { "type": "Point", "coordinates": [ -79.71417, -6.15194 ] } },
{ "type": "Feature", "properties": { "Id": 3694582, "Name": "Morropón", "Lat": -5.1868, "Long": -79.97076, "Class": "PPL", "field_11": "20", "field_12": 2004, "field_13": 200405, "Population": 12307, "field_17": 130 }, "geometry": { "type": "Point", "coordinates": [ -79.97076, -5.1868 ] } },
{ "type": "Feature", "properties": { "Id": 3694666, "Name": "Monsefú", "Lat": -6.87431, "Long": -79.86871, "Class": "PPL", "field_11": "14", "field_12": 1401, "field_13": 140108, "Population": 25707, "field_17": 14 }, "geometry": { "type": "Point", "coordinates": [ -79.86871, -6.87431 ] } },
{ "type": "Feature", "properties": { "Id": 3694725, "Name": "Moche", "Lat": -8.17111, "Long": -79.00917, "Class": "PPLA3", "field_11": "13", "field_12": 1301, "field_13": 130107, "Population": 22581, "field_17": 13 }, "geometry": { "type": "Point", "coordinates": [ -79.00917, -8.17111 ] } },
{ "type": "Feature", "properties": { "Id": 3694939, "Name": "Marcavelica", "Lat": -4.87778, "Long": -80.70528, "Class": "PPLA3", "field_11": "20", "field_12": 2006, "field_13": 200605, "Population": 25645, "field_17": 62 }, "geometry": { "type": "Point", "coordinates": [ -80.70528, -4.87778 ] } },
{ "type": "Feature", "properties": { "Id": 3695466, "Name": "La Unión", "Lat": -5.40232, "Long": -80.74224, "Class": "PPL", "field_11": "20", "field_12": 2001, "field_13": 200110, "Population": 34834, "field_17": 15 }, "geometry": { "type": "Point", "coordinates": [ -80.74224, -5.40232 ] } },
{ "type": "Feature", "properties": { "Id": 3695617, "Name": "Laredo", "Lat": -8.08965, "Long": -78.9602, "Class": "PPLA3", "field_11": "13", "field_12": 1301, "field_13": 130106, "Population": 24691, "field_17": 97 }, "geometry": { "type": "Point", "coordinates": [ -78.9602, -8.08965 ] } },
{ "type": "Feature", "properties": { "Id": 3695675, "Name": "La Peca", "Lat": -5.61111, "Long": -78.435, "Class": "PPLA3", "field_11": "01", "field_12": 102, "field_13": 10206, "Population": 27045, "field_17": 897 }, "geometry": { "type": "Point", "coordinates": [ -78.435, -5.61111 ] } },
{ "type": "Feature", "properties": { "Id": 3695754, "Name": "Lambayeque", "Lat": -6.70111, "Long": -79.90611, "Class": "PPLA3", "field_11": "14", "field_12": 1403, "field_13": 140301, "Population": 43710, "field_17": 23 }, "geometry": { "type": "Point", "coordinates": [ -79.90611, -6.70111 ] } },
{ "type": "Feature", "properties": { "Id": 3695757, "Name": "Lamas", "Lat": -6.41667, "Long": -76.53333, "Class": "PPLA3", "field_11": "22", "field_12": 2205, "field_13": 220501, "Population": 13693, "field_17": 814 }, "geometry": { "type": "Point", "coordinates": [ -76.53333, -6.41667 ] } },
{ "type": "Feature", "properties": { "Id": 3696057, "Name": "Juanjuí", "Lat": -7.17697, "Long": -76.72774, "Class": "PPL", "field_11": "22", "field_12": 2206, "field_13": 220601, "Population": 37715, "field_17": 278 }, "geometry": { "type": "Point", "coordinates": [ -76.72774, -7.17697 ] } },
{ "type": "Feature", "properties": { "Id": 3696150, "Name": "Jaén", "Lat": -5.70729, "Long": -78.80785, "Class": "PPL", "field_11": "06", "field_12": 608, "field_13": 60801, "Population": 52493, "field_17": 730 }, "geometry": { "type": "Point", "coordinates": [ -78.80785, -5.70729 ] } },
{ "type": "Feature", "properties": { "Id": 3696183, "Name": "Iquitos", "Lat": -3.74814, "Long": -73.2529, "Class": "PPLA", "field_11": "16", "field_12": 1601, "field_13": 160101, "Population": 377609, "field_17": 107 }, "geometry": { "type": "Point", "coordinates": [ -73.2529, -3.74814 ] } },
{ "type": "Feature", "properties": { "Id": 3696378, "Name": "Huaraz", "Lat": -9.52614, "Long": -77.52869, "Class": "PPLA", "field_11": "02", "field_12": 201, "field_13": 20101, "Population": 118836, "field_17": 2829 }, "geometry": { "type": "Point", "coordinates": [ -77.52869, -9.52614 ] } },
{ "type": "Feature", "properties": { "Id": 3696417, "Name": "Huánuco", "Lat": -9.92882, "Long": -76.23989, "Class": "PPLA", "field_11": "10", "field_12": 1001, "field_13": 100101, "Population": 196627, "field_17": 1795 }, "geometry": { "type": "Point", "coordinates": [ -76.23989, -9.92882 ] } },
{ "type": "Feature", "properties": { "Id": 3696509, "Name": "Huamachuco", "Lat": -7.8, "Long": -78.06667, "Class": "PPLA3", "field_11": "13", "field_12": 1309, "field_13": 130901, "Population": 21768, "field_17": 3341 }, "geometry": { "type": "Point", "coordinates": [ -78.06667, -7.8 ] } },
{ "type": "Feature", "properties": { "Id": 3696847, "Name": "Guadalupe", "Lat": -7.25, "Long": -79.48333, "Class": "PPLA3", "field_11": "13", "field_12": 1307, "field_13": 130702, "Population": 25376, "field_17": 83 }, "geometry": { "type": "Point", "coordinates": [ -79.48333, -7.25 ] } },
{ "type": "Feature", "properties": { "Id": 3697033, "Name": "Ferreñafe", "Lat": -6.63889, "Long": -79.78889, "Class": "PPLA3", "field_11": "14", "field_12": 1402, "field_13": 140201, "Population": 34357, "field_17": 42 }, "geometry": { "type": "Point", "coordinates": [ -79.78889, -6.63889 ] } },
{ "type": "Feature", "properties": { "Id": 3697083, "Name": "Eten", "Lat": -6.90806, "Long": -79.86417, "Class": "PPLA3", "field_11": "14", "field_12": 1401, "field_13": 140103, "Population": 13693, "field_17": 8 }, "geometry": { "type": "Point", "coordinates": [ -79.86417, -6.90806 ] } },
{ "type": "Feature", "properties": { "Id": 3697838, "Name": "Contamana", "Lat": -7.33333, "Long": -75.01667, "Class": "PPLA3", "field_11": "16", "field_12": 1606, "field_13": 160601, "Population": 13885, "field_17": 147 }, "geometry": { "type": "Point", "coordinates": [ -75.01667, -7.33333 ] } },
{ "type": "Feature", "properties": { "Id": 3697990, "Name": "Coishco", "Lat": -9.02306, "Long": -78.61556, "Class": "PPLA3", "field_11": "02", "field_12": 218, "field_13": 21803, "Population": 15083, "field_17": 20 }, "geometry": { "type": "Point", "coordinates": [ -78.61556, -9.02306 ] } },
{ "type": "Feature", "properties": { "Id": 3698105, "Name": "Chulucanas", "Lat": -5.0925, "Long": -80.1625, "Class": "PPLA3", "field_11": "20", "field_12": 2004, "field_13": 200401, "Population": 68835, "field_17": 92 }, "geometry": { "type": "Point", "coordinates": [ -80.1625, -5.0925 ] } },
{ "type": "Feature", "properties": { "Id": 3698141, "Name": "Chota", "Lat": -6.55, "Long": -78.65, "Class": "PPLA3", "field_11": "06", "field_12": 604, "field_13": 60401, "Population": 14240, "field_17": 2390 }, "geometry": { "type": "Point", "coordinates": [ -78.65, -6.55 ] } },
{ "type": "Feature", "properties": { "Id": 3698176, "Name": "Chongoyape", "Lat": -6.64056, "Long": -79.38917, "Class": "PPLA3", "field_11": "14", "field_12": 1401, "field_13": 140102, "Population": 16061, "field_17": 214 }, "geometry": { "type": "Point", "coordinates": [ -79.38917, -6.64056 ] } },
{ "type": "Feature", "properties": { "Id": 3698194, "Name": "Chocope", "Lat": -7.79139, "Long": -79.22167, "Class": "PPLA3", "field_11": "13", "field_12": 1302, "field_13": 130203, "Population": 32370, "field_17": 109 }, "geometry": { "type": "Point", "coordinates": [ -79.22167, -7.79139 ] } },
{ "type": "Feature", "properties": { "Id": 3698304, "Name": "Chimbote", "Lat": -9.07508, "Long": -78.59373, "Class": "PPLA3", "field_11": "02", "field_12": 218, "field_13": 21801, "Population": 316966, "field_17": 1 }, "geometry": { "type": "Point", "coordinates": [ -78.59373, -9.07508 ] } },
{ "type": "Feature", "properties": { "Id": 3698350, "Name": "Chiclayo", "Lat": -6.77008, "Long": -79.85495, "Class": "PPLA", "field_11": "14", "field_12": 1401, "field_13": 140101, "Population": 552508, "field_17": 1 }, "geometry": { "type": "Point", "coordinates": [ -79.85495, -6.77008 ] } },
{ "type": "Feature", "properties": { "Id": 3698359, "Name": "Chicama", "Lat": -7.84472, "Long": -79.14694, "Class": "PPLA3", "field_11": "13", "field_12": 1302, "field_13": 130202, "Population": 14915, "field_17": 131 }, "geometry": { "type": "Point", "coordinates": [ -79.14694, -7.84472 ] } },
{ "type": "Feature", "properties": { "Id": 3698390, "Name": "Chepén", "Lat": -7.22436, "Long": -79.42476, "Class": "PPL", "field_11": "13", "field_12": 1304, "field_13": 130401, "Population": 41992, "field_17": 239 }, "geometry": { "type": "Point", "coordinates": [ -79.42476, -7.22436 ] } },
{ "type": "Feature", "properties": { "Id": 3698540, "Name": "Chachapoyas", "Lat": -6.23169, "Long": -77.86903, "Class": "PPLA", "field_11": "01", "field_12": 101, "field_13": 10101, "Population": 32026, "field_17": 2360 }, "geometry": { "type": "Point", "coordinates": [ -77.86903, -6.23169 ] } },
{ "type": "Feature", "properties": { "Id": 3698608, "Name": "Celendín", "Lat": -6.86544, "Long": -78.14552, "Class": "PPLA2", "field_11": "06", "field_12": 603, "field_13": 60301, "Population": 14660, "field_17": 2629 }, "geometry": { "type": "Point", "coordinates": [ -78.14552, -6.86544 ] } },
{ "type": "Feature", "properties": { "Id": 3698658, "Name": "Catacaos", "Lat": -5.26667, "Long": -80.68333, "Class": "PPLA3", "field_11": "20", "field_12": 2001, "field_13": 200105, "Population": 57304, "field_17": 23 }, "geometry": { "type": "Point", "coordinates": [ -80.68333, -5.26667 ] } },
{ "type": "Feature", "properties": { "Id": 3698841, "Name": "Caraz", "Lat": -9.04849, "Long": -77.81005, "Class": "PPL", "field_11": "02", "field_12": 212, "field_13": 21201, "Population": 10926, "field_17": 2441 }, "geometry": { "type": "Point", "coordinates": [ -77.81005, -9.04849 ] } },
{ "type": "Feature", "properties": { "Id": 3699088, "Name": "Cajamarca", "Lat": -7.16378, "Long": -78.50027, "Class": "PPLA", "field_11": "06", "field_12": 601, "field_13": 60101, "Population": 201329, "field_17": 2684 }, "geometry": { "type": "Point", "coordinates": [ -78.50027, -7.16378 ] } },
{ "type": "Feature", "properties": { "Id": 3699095, "Name": "Cajabamba", "Lat": -7.61667, "Long": -78.05, "Class": "PPLA3", "field_11": "06", "field_12": 602, "field_13": 60201, "Population": 13486, "field_17": 2636 }, "geometry": { "type": "Point", "coordinates": [ -78.05, -7.61667 ] } },
{ "type": "Feature", "properties": { "Id": 3699364, "Name": "Bellavista", "Lat": -7.05614, "Long": -76.5911, "Class": "PPLA3", "field_11": "22", "field_12": 2202, "field_13": 220201, "Population": 15231, "field_17": 319 }, "geometry": { "type": "Point", "coordinates": [ -76.5911, -7.05614 ] } },
{ "type": "Feature", "properties": { "Id": 3699456, "Name": "Bambamarca", "Lat": -6.68333, "Long": -78.53333, "Class": "PPLA3", "field_11": "06", "field_12": 607, "field_13": 60701, "Population": 13351, "field_17": 2747 }, "geometry": { "type": "Point", "coordinates": [ -78.53333, -6.68333 ] } },
{ "type": "Feature", "properties": { "Id": 3699484, "Name": "Bagua Grande", "Lat": -5.75611, "Long": -78.44111, "Class": "PPLA3", "field_11": "01", "field_12": 107, "field_13": 10701, "Population": 20382, "field_17": 450 }, "geometry": { "type": "Point", "coordinates": [ -78.44111, -5.75611 ] } },
{ "type": "Feature", "properties": { "Id": 3699544, "Name": "Ascope", "Lat": -7.71444, "Long": -79.10778, "Class": "PPLA3", "field_11": "13", "field_12": 1302, "field_13": 130201, "Population": 14015, "field_17": 231 }, "geometry": { "type": "Point", "coordinates": [ -79.10778, -7.71444 ] } },
{ "type": "Feature", "properties": { "Id": 3814568, "Name": "La Breita", "Lat": -4.25691, "Long": -80.88599, "Class": "PPL", "field_11": "20", "field_12": 2006, "field_13": 200605, "Population": 17693, "field_17": 232 }, "geometry": { "type": "Point", "coordinates": [ -80.88599, -4.25691 ] } },
{ "type": "Feature", "properties": { "Id": 3818398, "Name": "Zarumilla", "Lat": -3.50306, "Long": -80.27306, "Class": "PPLA3", "field_11": "24", "field_12": 2403, "field_13": 240301, "Population": 16907, "field_17": 14 }, "geometry": { "type": "Point", "coordinates": [ -80.27306, -3.50306 ] } },
{ "type": "Feature", "properties": { "Id": 3827811, "Name": "Belen", "Lat": -3.76016, "Long": -73.2497, "Class": "PPLX", "field_11": "16", "field_12": 1601, "field_13": 160112, "Population": 57824, "field_17": 102 }, "geometry": { "type": "Point", "coordinates": [ -73.2497, -3.76016 ] } },
{ "type": "Feature", "properties": { "Id": 3925476, "Name": "Yunguyo", "Lat": -16.25, "Long": -69.08333, "Class": "PPLA3", "field_11": "21", "field_12": 2113, "field_13": 211301, "Population": 16140, "field_17": 3857 }, "geometry": { "type": "Point", "coordinates": [ -69.08333, -16.25 ] } },
{ "type": "Feature", "properties": { "Id": 3925590, "Name": "Yauri", "Lat": -14.79083, "Long": -71.40986, "Class": "PPLA2", "field_11": "08", "field_12": 808, "field_13": 80801, "Population": 23867, "field_17": 3911 }, "geometry": { "type": "Point", "coordinates": [ -71.40986, -14.79083 ] } },
{ "type": "Feature", "properties": { "Id": 3925863, "Name": "Yanacancha", "Lat": -10.24111, "Long": -76.64556, "Class": "PPL", "field_11": "10", "field_12": 1010, "field_13": 101007, "Population": 23175, "field_17": 3997 }, "geometry": { "type": "Point", "coordinates": [ -76.64556, -10.24111 ] } },
{ "type": "Feature", "properties": { "Id": 3926119, "Name": "Tupac Amaru", "Lat": -13.71135, "Long": -76.1498, "Class": "PPL", "field_11": "11", "field_12": 1105, "field_13": 110508, "Population": 11159, "field_17": 82 }, "geometry": { "type": "Point", "coordinates": [ -76.1498, -13.71135 ] } },
{ "type": "Feature", "properties": { "Id": 3927758, "Name": "Tarma", "Lat": -11.41899, "Long": -75.68992, "Class": "PPLA3", "field_11": "12", "field_12": 1207, "field_13": 120701, "Population": 51350, "field_17": 3055 }, "geometry": { "type": "Point", "coordinates": [ -75.68992, -11.41899 ] } },
{ "type": "Feature", "properties": { "Id": 3927942, "Name": "Tambopata", "Lat": -12.67191, "Long": -69.35547, "Class": "PPL", "field_11": "17", "field_12": 1701, "field_13": 170101, "Population": 38966, "field_17": 224 }, "geometry": { "type": "Point", "coordinates": [ -69.35547, -12.67191 ] } },
{ "type": "Feature", "properties": { "Id": 3928128, "Name": "Tacna", "Lat": -18.01465, "Long": -70.25362, "Class": "PPLA", "field_11": "23", "field_12": 2301, "field_13": 230101, "Population": 286240, "field_17": 567 }, "geometry": { "type": "Point", "coordinates": [ -70.25362, -18.01465 ] } },
{ "type": "Feature", "properties": { "Id": 3928245, "Name": "Santiago de Surco", "Lat": -12.13588, "Long": -77.00742, "Class": "PPLX", "field_11": "15", "field_12": 1501, "field_13": 150140, "Population": 251648, "field_17": 92 }, "geometry": { "type": "Point", "coordinates": [ -77.00742, -12.13588 ] } },
{ "type": "Feature", "properties": { "Id": 3928274, "Name": "Supe", "Lat": -10.7975, "Long": -77.71306, "Class": "PPL", "field_11": "15", "field_12": 1502, "field_13": 150205, "Population": 13719, "field_17": 54 }, "geometry": { "type": "Point", "coordinates": [ -77.71306, -10.7975 ] } },
{ "type": "Feature", "properties": { "Id": 3928679, "Name": "Sicuani", "Lat": -14.26944, "Long": -71.22611, "Class": "PPLA3", "field_11": "08", "field_12": 806, "field_13": 80601, "Population": 33575, "field_17": 3551 }, "geometry": { "type": "Point", "coordinates": [ -71.22611, -14.26944 ] } },
{ "type": "Feature", "properties": { "Id": 3928924, "Name": "Satipo", "Lat": -11.25222, "Long": -74.63861, "Class": "PPLA3", "field_11": "12", "field_12": 1206, "field_13": 120601, "Population": 15532, "field_17": 629 }, "geometry": { "type": "Point", "coordinates": [ -74.63861, -11.25222 ] } },
{ "type": "Feature", "properties": { "Id": 3928993, "Name": "San Vicente de Cañete", "Lat": -13.07556, "Long": -76.38528, "Class": "PPL", "field_11": "15", "field_12": 1505, "field_13": 150501, "Population": 25517, "field_17": 45 }, "geometry": { "type": "Point", "coordinates": [ -76.38528, -13.07556 ] } },
{ "type": "Feature", "properties": { "Id": 3929051, "Name": "Santiago", "Lat": -14.18469, "Long": -75.71124, "Class": "PPL", "field_11": "11", "field_12": 1101, "field_13": 110111, "Population": 10449, "field_17": 379 }, "geometry": { "type": "Point", "coordinates": [ -75.71124, -14.18469 ] } },
{ "type": "Feature", "properties": { "Id": 3929172, "Name": "Santa María", "Lat": -12.00538, "Long": -76.89329, "Class": "PPL", "field_11": "15", "field_12": 1501, "field_13": 150118, "Population": 14853, "field_17": 545 }, "geometry": { "type": "Point", "coordinates": [ -76.89329, -12.00538 ] } },
{ "type": "Feature", "properties": { "Id": 3929295, "Name": "Santa Ana", "Lat": -12.86667, "Long": -72.71667, "Class": "PPL", "field_11": "08", "field_12": 809, "field_13": 80901, "Population": 25145, "field_17": 1646 }, "geometry": { "type": "Point", "coordinates": [ -72.71667, -12.86667 ] } },
{ "type": "Feature", "properties": { "Id": 3929314, "Name": "San Ramón", "Lat": -11.12417, "Long": -75.35733, "Class": "PPL", "field_11": "12", "field_12": 1203, "field_13": 120305, "Population": 14708, "field_17": 832 }, "geometry": { "type": "Point", "coordinates": [ -75.35733, -11.12417 ] } },
{ "type": "Feature", "properties": { "Id": 3929520, "Name": "San Juan", "Lat": -15.36528, "Long": -75.16222, "Class": "PPLA3", "field_11": "11", "field_12": 1103, "field_13": 110304, "Population": 12795, "field_17": 23 }, "geometry": { "type": "Point", "coordinates": [ -75.16222, -15.36528 ] } },
{ "type": "Feature", "properties": { "Id": 3929631, "Name": "San Isidro", "Lat": -12.09655, "Long": -77.04258, "Class": "PPL", "field_11": "15", "field_12": 1501, "field_13": 150131, "Population": 68309, "field_17": 98 }, "geometry": { "type": "Point", "coordinates": [ -77.04258, -12.09655 ] } },
{ "type": "Feature", "properties": { "Id": 3929768, "Name": "San Clemente", "Lat": -13.66667, "Long": -76.15, "Class": "PPLA3", "field_11": "11", "field_12": 1105, "field_13": 110507, "Population": 15815, "field_17": 80 }, "geometry": { "type": "Point", "coordinates": [ -76.15, -13.66667 ] } },
{ "type": "Feature", "properties": { "Id": 3931223, "Name": "Puquio", "Lat": -14.7, "Long": -74.13333, "Class": "PPLA3", "field_11": "05", "field_12": 506, "field_13": 50601, "Population": 10491, "field_17": 3195 }, "geometry": { "type": "Point", "coordinates": [ -74.13333, -14.7 ] } },
{ "type": "Feature", "properties": { "Id": 3931276, "Name": "Puno", "Lat": -15.84003, "Long": -70.02198, "Class": "PPLA", "field_11": "21", "field_12": 2101, "field_13": 210101, "Population": 128637, "field_17": 3792 }, "geometry": { "type": "Point", "coordinates": [ -70.02198, -15.84003 ] } },
{ "type": "Feature", "properties": { "Id": 3931453, "Name": "Supe Puerto", "Lat": -10.80135, "Long": -77.74333, "Class": "PPL", "field_11": "15", "field_12": 1502, "field_13": 150205, "Population": 11450, "field_17": 25 }, "geometry": { "type": "Point", "coordinates": [ -77.74333, -10.80135 ] } },
{ "type": "Feature", "properties": { "Id": 3931470, "Name": "Puerto Maldonado", "Lat": -12.58946, "Long": -69.19948, "Class": "PPLA", "field_11": "17", "field_12": 1701, "field_13": 170101, "Population": 85024, "field_17": 193 }, "geometry": { "type": "Point", "coordinates": [ -69.19948, -12.58946 ] } },
{ "type": "Feature", "properties": { "Id": 3932145, "Name": "Pisco", "Lat": -13.71029, "Long": -76.20538, "Class": "PPLA3", "field_11": "11", "field_12": 1105, "field_13": 110501, "Population": 61869, "field_17": 19 }, "geometry": { "type": "Point", "coordinates": [ -76.20538, -13.71029 ] } },
{ "type": "Feature", "properties": { "Id": 3932687, "Name": "Pativilca", "Lat": -10.7, "Long": -77.78333, "Class": "PPLA3", "field_11": "15", "field_12": 1502, "field_13": 150203, "Population": 13583, "field_17": 76 }, "geometry": { "type": "Point", "coordinates": [ -77.78333, -10.7 ] } },
{ "type": "Feature", "properties": { "Id": 3933024, "Name": "Paramonga", "Lat": -10.66667, "Long": -77.83333, "Class": "PPLA3", "field_11": "15", "field_12": 1502, "field_13": 150202, "Population": 27631, "field_17": 11 }, "geometry": { "type": "Point", "coordinates": [ -77.83333, -10.66667 ] } },
{ "type": "Feature", "properties": { "Id": 3933874, "Name": "Oxapampa", "Lat": -10.5775, "Long": -75.40167, "Class": "PPLA2", "field_11": "19", "field_12": 1903, "field_13": 190301, "Population": 12000, "field_17": 1814 }, "geometry": { "type": "Point", "coordinates": [ -75.40167, -10.5775 ] } },
{ "type": "Feature", "properties": { "Id": 3934239, "Name": "Nuevo Imperial", "Lat": -13.07541, "Long": -76.31719, "Class": "PPLA3", "field_11": "15", "field_12": 1505, "field_13": 150510, "Population": 32344, "field_17": 153 }, "geometry": { "type": "Point", "coordinates": [ -76.31719, -13.07541 ] } },
{ "type": "Feature", "properties": { "Id": 3934356, "Name": "Nazca", "Lat": -14.83098, "Long": -74.93895, "Class": "PPLA3", "field_11": "11", "field_12": 1103, "field_13": 110301, "Population": 23556, "field_17": 584 }, "geometry": { "type": "Point", "coordinates": [ -74.93895, -14.83098 ] } },
{ "type": "Feature", "properties": { "Id": 3934608, "Name": "Moquegua", "Lat": -17.19747, "Long": -70.93587, "Class": "PPLA", "field_11": "18", "field_12": 1801, "field_13": 180101, "Population": 69882, "field_17": 1445 }, "geometry": { "type": "Point", "coordinates": [ -70.93587, -17.19747 ] } },
{ "type": "Feature", "properties": { "Id": 3934707, "Name": "Mollendo", "Lat": -17.02306, "Long": -72.01472, "Class": "PPLA3", "field_11": "04", "field_12": 407, "field_13": 40701, "Population": 28953, "field_17": 70 }, "geometry": { "type": "Point", "coordinates": [ -72.01472, -17.02306 ] } },
{ "type": "Feature", "properties": { "Id": 3935288, "Name": "Minas de Marcona", "Lat": -15.21194, "Long": -75.11028, "Class": "PPL", "field_11": "11", "field_12": 1103, "field_13": 110304, "Population": 15478, "field_17": 776 }, "geometry": { "type": "Point", "coordinates": [ -75.11028, -15.21194 ] } },
{ "type": "Feature", "properties": { "Id": 3935572, "Name": "Mala", "Lat": -12.65806, "Long": -76.63083, "Class": "PPLA3", "field_11": "15", "field_12": 1505, "field_13": 150509, "Population": 17260, "field_17": 34 }, "geometry": { "type": "Point", "coordinates": [ -76.63083, -12.65806 ] } },
{ "type": "Feature", "properties": { "Id": 3936456, "Name": "Lima", "Lat": -12.04318, "Long": -77.02824, "Class": "PPLC", "field_11": "LMA", "field_12": null, "field_13": null, "Population": 7737002, "field_17": 152 }, "geometry": { "type": "Point", "coordinates": [ -77.02824, -12.04318 ] } },
{ "type": "Feature", "properties": { "Id": 3936952, "Name": "La Oroya", "Lat": -11.51893, "Long": -75.89935, "Class": "PPLA3", "field_11": "12", "field_12": 1208, "field_13": 120801, "Population": 33345, "field_17": 3765 }, "geometry": { "type": "Point", "coordinates": [ -75.89935, -11.51893 ] } },
{ "type": "Feature", "properties": { "Id": 3937486, "Name": "Junín", "Lat": -11.15895, "Long": -75.99304, "Class": "PPL", "field_11": "12", "field_12": 1205, "field_13": 120501, "Population": 15320, "field_17": 4117 }, "geometry": { "type": "Point", "coordinates": [ -75.99304, -11.15895 ] } },
{ "type": "Feature", "properties": { "Id": 3937513, "Name": "Juliaca", "Lat": -15.5, "Long": -70.13333, "Class": "PPLA3", "field_11": "21", "field_12": 2111, "field_13": 211101, "Population": 245675, "field_17": 3834 }, "geometry": { "type": "Point", "coordinates": [ -70.13333, -15.5 ] } },
{ "type": "Feature", "properties": { "Id": 3937547, "Name": "Villa Poeta José Gálvez Barrenechea", "Lat": -12.21312, "Long": -76.90522, "Class": "PPLL", "field_11": "15", "field_12": 1501, "field_13": 150143, "Population": 61000, "field_17": 111 }, "geometry": { "type": "Point", "coordinates": [ -76.90522, -12.21312 ] } },
{ "type": "Feature", "properties": { "Id": 3937733, "Name": "Jauja", "Lat": -11.77584, "Long": -75.49656, "Class": "PPLA3", "field_11": "12", "field_12": 1204, "field_13": 120401, "Population": 21057, "field_17": 3380 }, "geometry": { "type": "Point", "coordinates": [ -75.49656, -11.77584 ] } },
{ "type": "Feature", "properties": { "Id": 3938396, "Name": "Imperial", "Lat": -13.05927, "Long": -76.35269, "Class": "PPLA3", "field_11": "15", "field_12": 1505, "field_13": 150507, "Population": 32344, "field_17": 91 }, "geometry": { "type": "Point", "coordinates": [ -76.35269, -13.05927 ] } },
{ "type": "Feature", "properties": { "Id": 3938415, "Name": "Ilo", "Lat": -17.63185, "Long": -71.34108, "Class": "PPLA3", "field_11": "18", "field_12": 1803, "field_13": 180301, "Population": 53476, "field_17": 22 }, "geometry": { "type": "Point", "coordinates": [ -71.34108, -17.63185 ] } },
{ "type": "Feature", "properties": { "Id": 3938451, "Name": "Ilave", "Lat": -16.08333, "Long": -69.66667, "Class": "PPLA3", "field_11": "21", "field_12": 2105, "field_13": 210501, "Population": 16033, "field_17": 3841 }, "geometry": { "type": "Point", "coordinates": [ -69.66667, -16.08333 ] } },
{ "type": "Feature", "properties": { "Id": 3938527, "Name": "Ica", "Lat": -14.07538, "Long": -75.73422, "Class": "PPLA", "field_11": "11", "field_12": 1101, "field_13": 110101, "Population": 282407, "field_17": 396 }, "geometry": { "type": "Point", "coordinates": [ -75.73422, -14.07538 ] } },
{ "type": "Feature", "properties": { "Id": 3939023, "Name": "Huaura", "Lat": -11.07, "Long": -77.59944, "Class": "PPLA3", "field_11": "15", "field_12": 1508, "field_13": 150806, "Population": 20723, "field_17": 72 }, "geometry": { "type": "Point", "coordinates": [ -77.59944, -11.07 ] } },
{ "type": "Feature", "properties": { "Id": 3939168, "Name": "Huarmey", "Lat": -10.06806, "Long": -78.15222, "Class": "PPLA3", "field_11": "02", "field_12": 211, "field_13": 21101, "Population": 16172, "field_17": 13 }, "geometry": { "type": "Point", "coordinates": [ -78.15222, -10.06806 ] } },
{ "type": "Feature", "properties": { "Id": 3939285, "Name": "Huaral", "Lat": -11.495, "Long": -77.20778, "Class": "PPLA3", "field_11": "15", "field_12": 1506, "field_13": 150601, "Population": 62174, "field_17": 183 }, "geometry": { "type": "Point", "coordinates": [ -77.20778, -11.495 ] } },
{ "type": "Feature", "properties": { "Id": 3939386, "Name": "Huanta", "Lat": -12.93333, "Long": -74.25, "Class": "PPLA3", "field_11": "05", "field_12": 504, "field_13": 50401, "Population": 18627, "field_17": 2659 }, "geometry": { "type": "Point", "coordinates": [ -74.25, -12.93333 ] } },
{ "type": "Feature", "properties": { "Id": 3939459, "Name": "Huancayo", "Lat": -12.06866, "Long": -75.21027, "Class": "PPLA", "field_11": "12", "field_12": 1201, "field_13": 120114, "Population": 456250, "field_17": 3596 }, "geometry": { "type": "Point", "coordinates": [ -75.21027, -12.06866 ] } },
{ "type": "Feature", "properties": { "Id": 3939470, "Name": "Huancavelica", "Lat": -12.78691, "Long": -74.97298, "Class": "PPLA", "field_11": "09", "field_12": 901, "field_13": 90118, "Population": 49570, "field_17": 3990 }, "geometry": { "type": "Point", "coordinates": [ -74.97298, -12.78691 ] } },
{ "type": "Feature", "properties": { "Id": 3939761, "Name": "Hualmay", "Lat": -11.09639, "Long": -77.61389, "Class": "PPLA3", "field_11": "15", "field_12": 1508, "field_13": 150805, "Population": 26658, "field_17": 39 }, "geometry": { "type": "Point", "coordinates": [ -77.61389, -11.09639 ] } },
{ "type": "Feature", "properties": { "Id": 3940002, "Name": "Huacho", "Lat": -11.11718, "Long": -77.60584, "Class": "PPLA", "field_11": "15", "field_12": 1508, "field_13": 150801, "Population": 54545, "field_17": 75 }, "geometry": { "type": "Point", "coordinates": [ -77.60584, -11.11718 ] } },
{ "type": "Feature", "properties": { "Id": 3941584, "Name": "Cusco", "Lat": -13.53188, "Long": -71.96701, "Class": "PPLA", "field_11": "08", "field_12": 801, "field_13": 80101, "Population": 428450, "field_17": 3312 }, "geometry": { "type": "Point", "coordinates": [ -71.96701, -13.53188 ] } },
{ "type": "Feature", "properties": { "Id": 3942548, "Name": "Concepción", "Lat": -11.91762, "Long": -75.31401, "Class": "PPL", "field_11": "12", "field_12": 1202, "field_13": 120201, "Population": 11330, "field_17": 3287 }, "geometry": { "type": "Point", "coordinates": [ -75.31401, -11.91762 ] } },
{ "type": "Feature", "properties": { "Id": 3943423, "Name": "Chosica", "Lat": -11.94306, "Long": -76.70944, "Class": "PPLA3", "field_11": "15", "field_12": 1501, "field_13": 150118, "Population": 88606, "field_17": 831 }, "geometry": { "type": "Point", "coordinates": [ -76.70944, -11.94306 ] } },
{ "type": "Feature", "properties": { "Id": 3943789, "Name": "Chincha Alta", "Lat": -13.40985, "Long": -76.13235, "Class": "PPLA3", "field_11": "11", "field_12": 1102, "field_13": 110201, "Population": 153076, "field_17": 111 }, "geometry": { "type": "Point", "coordinates": [ -76.13235, -13.40985 ] } },
{ "type": "Feature", "properties": { "Id": 3943957, "Name": "Chilca", "Lat": -12.52111, "Long": -76.73722, "Class": "PPLA3", "field_11": "15", "field_12": 1505, "field_13": 150505, "Population": 12884, "field_17": 11 }, "geometry": { "type": "Point", "coordinates": [ -76.73722, -12.52111 ] } },
{ "type": "Feature", "properties": { "Id": 3944179, "Name": "Chaupimarca", "Lat": -10.40696, "Long": -76.46168, "Class": "PPL", "field_11": "19", "field_12": 1902, "field_13": 190201, "Population": 28666, "field_17": 3446 }, "geometry": { "type": "Point", "coordinates": [ -76.46168, -10.40696 ] } },
{ "type": "Feature", "properties": { "Id": 3944399, "Name": "Chancay", "Lat": -11.57139, "Long": -77.26722, "Class": "PPLA3", "field_11": "15", "field_12": 1506, "field_13": 150605, "Population": 26958, "field_17": 34 }, "geometry": { "type": "Point", "coordinates": [ -77.26722, -11.57139 ] } },
{ "type": "Feature", "properties": { "Id": 3944797, "Name": "Cerro de Pasco", "Lat": -10.66577, "Long": -76.25309, "Class": "PPLA", "field_11": "19", "field_12": 1901, "field_13": 190109, "Population": 58899, "field_17": 4457 }, "geometry": { "type": "Point", "coordinates": [ -76.25309, -10.66577 ] } },
{ "type": "Feature", "properties": { "Id": 3945985, "Name": "Camaná", "Lat": -16.62375, "Long": -72.71055, "Class": "PPL", "field_11": "04", "field_12": 402, "field_13": 40201, "Population": 16434, "field_17": 16 }, "geometry": { "type": "Point", "coordinates": [ -72.71055, -16.62375 ] } },
{ "type": "Feature", "properties": { "Id": 3946083, "Name": "Callao", "Lat": -12.05162, "Long": -77.13452, "Class": "PPLA", "field_11": "07", "field_12": 701, "field_13": 70101, "Population": 1300000, "field_17": 5 }, "geometry": { "type": "Point", "coordinates": [ -77.13452, -12.05162 ] } },
{ "type": "Feature", "properties": { "Id": 3946820, "Name": "Barranca", "Lat": -10.75, "Long": -77.76667, "Class": "PPLA3", "field_11": "15", "field_12": 1502, "field_13": 150201, "Population": 46290, "field_17": 52 }, "geometry": { "type": "Point", "coordinates": [ -77.76667, -10.75 ] } },
{ "type": "Feature", "properties": { "Id": 3946937, "Name": "Azángaro", "Lat": -14.91416, "Long": -70.19846, "Class": "PPLA2", "field_11": "21", "field_12": 2102, "field_13": 210201, "Population": 13290, "field_17": 3914 }, "geometry": { "type": "Point", "coordinates": [ -70.19846, -14.91416 ] } },
{ "type": "Feature", "properties": { "Id": 3946985, "Name": "Ayaviri", "Lat": -14.88639, "Long": -70.58889, "Class": "PPLA3", "field_11": "21", "field_12": 2108, "field_13": 210801, "Population": 19310, "field_17": 3898 }, "geometry": { "type": "Point", "coordinates": [ -70.58889, -14.88639 ] } },
{ "type": "Feature", "properties": { "Id": 3947019, "Name": "Ayacucho", "Lat": -13.1638, "Long": -74.22345, "Class": "PPLA", "field_11": "05", "field_12": 501, "field_13": 50101, "Population": 140033, "field_17": 2805 }, "geometry": { "type": "Point", "coordinates": [ -74.22345, -13.1638 ] } },
{ "type": "Feature", "properties": { "Id": 3947110, "Name": "Atuncolla", "Lat": -15.68865, "Long": -70.14392, "Class": "PPLA3", "field_11": "21", "field_12": 2101, "field_13": 210104, "Population": 12654, "field_17": 3857 }, "geometry": { "type": "Point", "coordinates": [ -70.14392, -15.68865 ] } },
{ "type": "Feature", "properties": { "Id": 3947322, "Name": "Arequipa", "Lat": -16.39899, "Long": -71.53747, "Class": "PPLA", "field_11": "04", "field_12": 401, "field_13": 40101, "Population": 1008290, "field_17": 2397 }, "geometry": { "type": "Point", "coordinates": [ -71.53747, -16.39899 ] } },
{ "type": "Feature", "properties": { "Id": 3947740, "Name": "Andahuaylas", "Lat": -13.65556, "Long": -73.38722, "Class": "PPLA3", "field_11": "03", "field_12": 302, "field_13": 30201, "Population": 17444, "field_17": 2902 }, "geometry": { "type": "Point", "coordinates": [ -73.38722, -13.65556 ] } },
{ "type": "Feature", "properties": { "Id": 3948642, "Name": "Abancay", "Lat": -13.63426, "Long": -72.8838, "Class": "PPLA", "field_11": "03", "field_12": 301, "field_13": 30101, "Population": 72277, "field_17": 2629 }, "geometry": { "type": "Point", "coordinates": [ -72.8838, -13.63426 ] } },
{ "type": "Feature", "properties": { "Id": 3949231, "Name": "Jacobo Hunter", "Lat": -16.44083, "Long": -71.55333, "Class": "PPLA3", "field_11": "04", "field_12": 401, "field_13": 40107, "Population": 46092, "field_17": 2282 }, "geometry": { "type": "Point", "coordinates": [ -71.55333, -16.44083 ] } },
{ "type": "Feature", "properties": { "Id": 6671381, "Name": "Santa Rosa de Sacco", "Lat": -11.55067, "Long": -75.94255, "Class": "PPL", "field_11": "12", "field_12": 1208, "field_13": 120808, "Population": 11257, "field_17": 3785 }, "geometry": { "type": "Point", "coordinates": [ -75.94255, -11.55067 ] } },
{ "type": "Feature", "properties": { "Id": 7626291, "Name": "La Rinconada", "Lat": -14.63126, "Long": -69.44638, "Class": "PPLS", "field_11": "21", "field_12": 2110, "field_13": 211002, "Population": 29678, "field_17": 5022 }, "geometry": { "type": "Point", "coordinates": [ -69.44638, -14.63126 ] } },
{ "type": "Feature", "properties": { "Id": 12157007, "Name": "Santa Anita - Los Ficus", "Lat": -12.05048, "Long": -76.97335, "Class": "PPL", "field_11": "15", "field_12": 1501, "field_13": 150137, "Population": 184614, "field_17": 245 }, "geometry": { "type": "Point", "coordinates": [ -76.97335, -12.05048 ] } },
{ "type": "Feature", "properties": { "Id": 12157008, "Name": "San Martin", "Lat": -5.18591, "Long": -80.66927, "Class": "PPL", "field_11": "20", "field_12": 2001, "field_13": 200115, "Population": 130000, "field_17": 35 }, "geometry": { "type": "Point", "coordinates": [ -80.66927, -5.18591 ] } },
{ "type": "Feature", "properties": { "Id": 12157013, "Name": "San Francisco De Borja", "Lat": -12.08911, "Long": -76.99876, "Class": "PPL", "field_11": "15", "field_12": 1501, "field_13": 150130, "Population": 105076, "field_17": 168 }, "geometry": { "type": "Point", "coordinates": [ -76.99876, -12.08911 ] } },
{ "type": "Feature", "properties": { "Id": 12157025, "Name": "Ciudad Satelite", "Lat": -16.43085, "Long": -71.52921, "Class": "PPLA3", "field_11": "04", "field_12": 401, "field_13": 40129, "Population": 76410, "field_17": 2336 }, "geometry": { "type": "Point", "coordinates": [ -71.52921, -16.43085 ] } },
{ "type": "Feature", "properties": { "Id": 12157030, "Name": "Chilca", "Lat": -12.08628, "Long": -75.20827, "Class": "PPLA3", "field_11": "12", "field_12": 1201, "field_13": 120107, "Population": 73371, "field_17": 3534 }, "geometry": { "type": "Point", "coordinates": [ -75.20827, -12.08628 ] } },
{ "type": "Feature", "properties": { "Id": 12157037, "Name": "San Fernando", "Lat": -8.39818, "Long": -74.53774, "Class": "PPL", "field_11": "25", "field_12": 2501, "field_13": 250107, "Population": 67844, "field_17": 155 }, "geometry": { "type": "Point", "coordinates": [ -74.53774, -8.39818 ] } },
{ "type": "Feature", "properties": { "Id": 12157038, "Name": "Jesus Maria", "Lat": -12.06982, "Long": -77.04495, "Class": "PPL", "field_11": "15", "field_12": 1501, "field_13": 150113, "Population": 66171, "field_17": 121 }, "geometry": { "type": "Point", "coordinates": [ -77.04495, -12.06982 ] } },
{ "type": "Feature", "properties": { "Id": 12157056, "Name": "Wanchaq", "Lat": -13.52493, "Long": -71.96531, "Class": "PPL", "field_11": "08", "field_12": 801, "field_13": 80108, "Population": 59134, "field_17": 3358 }, "geometry": { "type": "Point", "coordinates": [ -71.96531, -13.52493 ] } },
{ "type": "Feature", "properties": { "Id": 12157064, "Name": "Centenario", "Lat": -9.51656, "Long": -77.53045, "Class": "PPL", "field_11": "02", "field_12": 201, "field_13": 20105, "Population": 47581, "field_17": 3039 }, "geometry": { "type": "Point", "coordinates": [ -77.53045, -9.51656 ] } },
{ "type": "Feature", "properties": { "Id": 12157065, "Name": "Cono Norte", "Lat": -16.32369, "Long": -71.58151, "Class": "PPL", "field_11": "04", "field_12": 401, "field_13": 40104, "Population": 47347, "field_17": 2593 }, "geometry": { "type": "Point", "coordinates": [ -71.58151, -16.32369 ] } },
{ "type": "Feature", "properties": { "Id": 12157070, "Name": "Carmen De La Legua Reynoso", "Lat": -12.05354, "Long": -77.09802, "Class": "PPL", "field_11": "07", "field_12": 701, "field_13": 70101, "Population": 41863, "field_17": 49 }, "geometry": { "type": "Point", "coordinates": [ -77.09802, -12.05354 ] } },
{ "type": "Feature", "properties": { "Id": 12157074, "Name": "La Banda", "Lat": -6.49265, "Long": -76.34224, "Class": "PPLA3", "field_11": "22", "field_12": 2209, "field_13": 220909, "Population": 24932, "field_17": 386 }, "geometry": { "type": "Point", "coordinates": [ -76.34224, -6.49265 ] } },
{ "type": "Feature", "properties": { "Id": 12157091, "Name": "Yanacancha", "Lat": -10.66585, "Long": -76.25525, "Class": "PPL", "field_11": "19", "field_12": 1901, "field_13": 190113, "Population": 24105, "field_17": 4348 }, "geometry": { "type": "Point", "coordinates": [ -76.25525, -10.66585 ] } },
{ "type": "Feature", "properties": { "Id": 12157092, "Name": "El Pedregal", "Lat": -16.36314, "Long": -72.1921, "Class": "PPL", "field_11": "04", "field_12": 405, "field_13": 40520, "Population": 20063, "field_17": 1400 }, "geometry": { "type": "Point", "coordinates": [ -72.1921, -16.36314 ] } },
{ "type": "Feature", "properties": { "Id": 12157093, "Name": "Santa Rosa", "Lat": -10.91908, "Long": -74.88496, "Class": "PPL", "field_11": "12", "field_12": 1203, "field_13": 120302, "Population": 18057, "field_17": 524 }, "geometry": { "type": "Point", "coordinates": [ -74.88496, -10.91908 ] } },
{ "type": "Feature", "properties": { "Id": 12157094, "Name": "San Antonio", "Lat": -17.21718, "Long": -70.92593, "Class": "PPL", "field_11": "18", "field_12": 1801, "field_13": 180101, "Population": 15633, "field_17": 1455 }, "geometry": { "type": "Point", "coordinates": [ -70.92593, -17.21718 ] } },
{ "type": "Feature", "properties": { "Id": 12157098, "Name": "Cono Norte", "Lat": -16.30111, "Long": -71.61647, "Class": "PPL", "field_11": "04", "field_12": 401, "field_13": 40128, "Population": 14542, "field_17": 2705 }, "geometry": { "type": "Point", "coordinates": [ -71.61647, -16.30111 ] } },
{ "type": "Feature", "properties": { "Id": 12157100, "Name": "Las Nazarenas", "Lat": -13.15465, "Long": -74.21553, "Class": "PPL", "field_11": "05", "field_12": 501, "field_13": 50115, "Population": 14316, "field_17": 2753 }, "geometry": { "type": "Point", "coordinates": [ -74.21553, -13.15465 ] } },
{ "type": "Feature", "properties": { "Id": 12157106, "Name": "Pilcomayo", "Lat": -9.04728, "Long": -77.81092, "Class": "PPL", "field_11": "02", "field_12": 212, "field_13": 21201, "Population": 13295, "field_17": 2271 }, "geometry": { "type": "Point", "coordinates": [ -77.81092, -9.04728 ] } },
{ "type": "Feature", "properties": { "Id": 12157107, "Name": "La Rinconada Ana Maria (La Rinconada)", "Lat": -14.63392, "Long": -69.44694, "Class": "PPL", "field_11": "21", "field_12": 2110, "field_13": 211002, "Population": 12183, "field_17": 5016 }, "geometry": { "type": "Point", "coordinates": [ -69.44694, -14.63392 ] } },
{ "type": "Feature", "properties": { "Id": 12157110, "Name": "La Pradera", "Lat": -6.779, "Long": -79.886, "Class": "PPL", "field_11": "14", "field_12": 1401, "field_13": 140112, "Population": 10072, "field_17": 25 }, "geometry": { "type": "Point", "coordinates": [ -79.886, -6.779 ] } },
{ "type": "Feature", "properties": { "Id": 12157128, "Name": "Selva Alegre", "Lat": -16.37057, "Long": -71.52724, "Class": "PPL", "field_11": "04", "field_12": 401, "field_13": 40102, "Population": 72696, "field_17": 2455 }, "geometry": { "type": "Point", "coordinates": [ -71.52724, -16.37057 ] } },
{ "type": "Feature", "properties": { "Id": 12157129, "Name": "Santiago", "Lat": -13.52728, "Long": -71.9843, "Class": "PPL", "field_11": "08", "field_12": 801, "field_13": 80106, "Population": 64075, "field_17": 3420 }, "geometry": { "type": "Point", "coordinates": [ -71.9843, -13.52728 ] } },
{ "type": "Feature", "properties": { "Id": 12165736, "Name": "Breña", "Lat": -12.05605, "Long": -77.05295, "Class": "PPLA3", "field_11": "15", "field_12": 1501, "field_13": 150105, "Population": 81909, "field_17": 119 }, "geometry": { "type": "Point", "coordinates": [ -77.05295, -12.05605 ] } }
]
}
