{
"type": "FeatureCollection",
"name": "presas",
"crs": { "type": "name", "properties": { "name": "urn:ogc:def:crs:OGC:1.3:CRS84" } },
"features": [
{ "type": "Feature", "properties": { "CODIGO": "CHH-II CH", "NOMBRE": "Chungar", "COOLONGITU": -76.52127, "COOLATITUD": -11.118261, "NOMTIPO1": "Convencional", "NOMTIPO2": "Presa", "UBIGEO": "150610", "DEP": "LIMA", "PROV": "HUARAL", "DIST": "SANTA CRUZ DE ANDAMARCA", "NOMAAA": "Cañete Fortaleza", "NOMALA": "Chancay Huaral", "NOMCUENCA": "Alto Chancay - Huaral" }, "geometry": { "type": "Point", "coordinates": [ -76.52127, -11.118261 ] } },
{ "type": "Feature", "properties": { "CODIGO": "000012", "NOMBRE": "Marcacocha", "COOLONGITU": -76.346808, "COOLATITUD": -11.380547, "NOMTIPO1": "Convencional", "NOMTIPO2": "Presa", "UBIGEO": "150709", "DEP": "LIMA", "PROV": "HUAROCHIRI", "DIST": "HUAROCHIRI", "NOMAAA": "Cañete Fortaleza", "NOMALA": "Chillon Rimac Lurin", "NOMCUENCA": "Unidad Hidrografica 499695" }, "geometry": { "type": "Point", "coordinates": [ -76.346808, -11.380547 ] } },
{ "type": "Feature", "properties": { "CODIGO": "-", "NOMBRE": "Huichicocha", "COOLONGITU": -75.534413, "COOLATITUD": -12.562971, "NOMTIPO1": "Convencional", "NOMTIPO2": "Presa", "UBIGEO": "120108", "DEP": "JUNIN", "PROV": "HUANCAYO", "DIST": "CHONGOS ALTO", "NOMAAA": "Mantaro", "NOMALA": "Mantaro", "NOMCUENCA": "Cuenca Vilca" }, "geometry": { "type": "Point", "coordinates": [ -75.534413, -12.562971 ] } },
{ "type": "Feature", "properties": { "CODIGO": "000023", "NOMBRE": "Yuracmayo", "COOLONGITU": -76.154778, "COOLATITUD": -11.839264, "NOMTIPO1": "Convencional", "NOMTIPO2": "Presa", "UBIGEO": "150709", "DEP": "LIMA", "PROV": "HUAROCHIRI", "DIST": "HUAROCHIRI", "NOMAAA": "Cañete Fortaleza", "NOMALA": "Chillon Rimac Lurin", "NOMCUENCA": "Cuenca Blanco" }, "geometry": { "type": "Point", "coordinates": [ -76.154778, -11.839264 ] } },
{ "type": "Feature", "properties": { "CODIGO": "000015", "NOMBRE": "Pirhua", "COOLONGITU": -76.320917, "COOLATITUD": -11.673961, "NOMTIPO1": "Convencional", "NOMTIPO2": "Presa", "UBIGEO": "150709", "DEP": "LIMA", "PROV": "HUAROCHIRI", "DIST": "HUAROCHIRI", "NOMAAA": "Cañete Fortaleza", "NOMALA": "Chillon Rimac Lurin", "NOMCUENCA": "Cuenca Santa Eulalia" }, "geometry": { "type": "Point", "coordinates": [ -76.320917, -11.673961 ] } },
{ "type": "Feature", "properties": { "CODIGO": "-", "NOMBRE": "Balsacocha", "COOLONGITU": -75.481752, "COOLATITUD": -12.590448, "NOMTIPO1": "Convencional", "NOMTIPO2": "Presa", "UBIGEO": "120108", "DEP": "JUNIN", "PROV": "HUANCAYO", "DIST": "CHONGOS ALTO", "NOMAAA": "Mantaro", "NOMALA": "Mantaro", "NOMCUENCA": "Cuenca Vilca" }, "geometry": { "type": "Point", "coordinates": [ -75.481752, -12.590448 ] } },
{ "type": "Feature", "properties": { "CODIGO": "13214002", "NOMBRE": "Aguada Blanca", "COOLONGITU": -71.35, "COOLATITUD": -16.25, "NOMTIPO1": "Convencional", "NOMTIPO2": "Presa", "UBIGEO": "040103", "DEP": "AREQUIPA", "PROV": "AREQUIPA", "DIST": "CAYMA", "NOMAAA": "Caplina Ocoña", "NOMALA": "Chili", "NOMCUENCA": "Unidad Hidrografica 13257" }, "geometry": { "type": "Point", "coordinates": [ -71.35, -16.25 ] } },
{ "type": "Feature", "properties": { "CODIGO": "-", "NOMBRE": "Caullau", "COOLONGITU": -75.805144, "COOLATITUD": -12.000173, "NOMTIPO1": "Convencional", "NOMTIPO2": "Presa", "UBIGEO": "120405", "DEP": "JUNIN", "PROV": "JAUJA", "DIST": "CANCHAYLLO", "NOMAAA": "Mantaro", "NOMALA": "Mantaro", "NOMCUENCA": "Cuenca Pachacayo" }, "geometry": { "type": "Point", "coordinates": [ -75.805144, -12.000173 ] } },
{ "type": "Feature", "properties": { "CODIGO": "1329414001", "NOMBRE": "Chalhuanca", "COOLONGITU": -71.329499, "COOLATITUD": -15.793563, "NOMTIPO1": "Convencional", "NOMTIPO2": "Presa", "UBIGEO": "040519", "DEP": "AREQUIPA", "PROV": "CAYLLOMA", "DIST": "YANQUE", "NOMAAA": "Caplina Ocoña", "NOMALA": "Chili", "NOMCUENCA": "Cuenca Chalhuanca" }, "geometry": { "type": "Point", "coordinates": [ -71.329499, -15.793563 ] } },
{ "type": "Feature", "properties": { "CODIGO": "13214001", "NOMBRE": "El Frayle", "COOLONGITU": -71.19, "COOLATITUD": -16.15, "NOMTIPO1": "Convencional", "NOMTIPO2": "Presa", "UBIGEO": "040119", "DEP": "AREQUIPA", "PROV": "AREQUIPA", "DIST": "SAN JUAN DE TARUCANI", "NOMAAA": "Caplina Ocoña", "NOMALA": "Chili", "NOMCUENCA": "Bajo Blanco" }, "geometry": { "type": "Point", "coordinates": [ -71.19, -16.15 ] } },
{ "type": "Feature", "properties": { "CODIGO": "000007", "NOMBRE": "Huallunca", "COOLONGITU": -76.372992, "COOLATITUD": -11.596914, "NOMTIPO1": "Convencional", "NOMTIPO2": "Presa", "UBIGEO": "150709", "DEP": "LIMA", "PROV": "HUAROCHIRI", "DIST": "HUAROCHIRI", "NOMAAA": "Cañete Fortaleza", "NOMALA": "Chillon Rimac Lurin", "NOMCUENCA": "Cuenca Santa Eulalia" }, "geometry": { "type": "Point", "coordinates": [ -76.372992, -11.596914 ] } },
{ "type": "Feature", "properties": { "CODIGO": "-", "NOMBRE": "Hueghue", "COOLONGITU": -76.28156, "COOLATITUD": -11.244339, "NOMTIPO1": "Convencional", "NOMTIPO2": "Presa", "UBIGEO": "120807", "DEP": "JUNIN", "PROV": "YAULI", "DIST": "SANTA BARBARA DE CARHUACAYAN", "NOMAAA": "Mantaro", "NOMALA": "Mantaro", "NOMCUENCA": "Cuenca Conocancha" }, "geometry": { "type": "Point", "coordinates": [ -76.28156, -11.244339 ] } },
{ "type": "Feature", "properties": { "CODIGO": "-", "NOMBRE": "Coyllorcocha", "COOLONGITU": -75.539339, "COOLATITUD": -12.581037, "NOMTIPO1": "Convencional", "NOMTIPO2": "Presa", "UBIGEO": "120108", "DEP": "JUNIN", "PROV": "HUANCAYO", "DIST": "CHONGOS ALTO", "NOMAAA": "Mantaro", "NOMALA": "Mantaro", "NOMCUENCA": "Cuenca Vilca" }, "geometry": { "type": "Point", "coordinates": [ -75.539339, -12.581037 ] } },
{ "type": "Feature", "properties": { "CODIGO": "000019", "NOMBRE": "Quiula", "COOLONGITU": -76.484986, "COOLATITUD": -11.480417, "NOMTIPO1": "Convencional", "NOMTIPO2": "Presa", "UBIGEO": "150709", "DEP": "LIMA", "PROV": "HUAROCHIRI", "DIST": "HUAROCHIRI", "NOMAAA": "Cañete Fortaleza", "NOMALA": "Chillon Rimac Lurin", "NOMCUENCA": "Cuenca Santa Eulalia" }, "geometry": { "type": "Point", "coordinates": [ -76.484986, -11.480417 ] } },
{ "type": "Feature", "properties": { "CODIGO": "000021", "NOMBRE": "Sangrar", "COOLONGITU": -76.316064, "COOLATITUD": -11.491481, "NOMTIPO1": "Convencional", "NOMTIPO2": "Presa", "UBIGEO": "150709", "DEP": "LIMA", "PROV": "HUAROCHIRI", "DIST": "HUAROCHIRI", "NOMAAA": "Cañete Fortaleza", "NOMALA": "Chillon Rimac Lurin", "NOMCUENCA": "Unidad Hidrografica 499695" }, "geometry": { "type": "Point", "coordinates": [ -76.316064, -11.491481 ] } },
{ "type": "Feature", "properties": { "CODIGO": "-", "NOMBRE": "Calzada", "COOLONGITU": -75.82877, "COOLATITUD": -11.960906, "NOMTIPO1": "Convencional", "NOMTIPO2": "Presa", "UBIGEO": "120405", "DEP": "JUNIN", "PROV": "JAUJA", "DIST": "CANCHAYLLO", "NOMAAA": "Mantaro", "NOMALA": "Mantaro", "NOMCUENCA": "Cuenca Pachacayo" }, "geometry": { "type": "Point", "coordinates": [ -75.82877, -11.960906 ] } },
{ "type": "Feature", "properties": { "CODIGO": "13414003", "NOMBRE": "Dique Los Españoles", "COOLONGITU": -71.03, "COOLATITUD": -15.77, "NOMTIPO1": "Convencional", "NOMTIPO2": "Presa", "UBIGEO": "040514", "DEP": "AREQUIPA", "PROV": "CAYLLOMA", "DIST": "SAN ANTONIO DE CHUCA", "NOMAAA": "Caplina Ocoña", "NOMALA": "Chili", "NOMCUENCA": "Unidad Hidrografica 13499" }, "geometry": { "type": "Point", "coordinates": [ -71.03, -15.77 ] } },
{ "type": "Feature", "properties": { "CODIGO": "-", "NOMBRE": "Huacracocha-Huari", "COOLONGITU": -75.915209, "COOLATITUD": -11.847748, "NOMTIPO1": "Convencional", "NOMTIPO2": "Presa", "UBIGEO": "120809", "DEP": "JUNIN", "PROV": "YAULI", "DIST": "SUITUCANCHA", "NOMAAA": "Mantaro", "NOMALA": "Mantaro", "NOMCUENCA": "Unidad Hidrografica 499693" }, "geometry": { "type": "Point", "coordinates": [ -75.915209, -11.847748 ] } },
{ "type": "Feature", "properties": { "CODIGO": null, "NOMBRE": "PRESA LIMÓN", "COOLONGITU": -79.32527, "COOLATITUD": -5.916667, "NOMTIPO1": "Automática", "NOMTIPO2": "Presa", "UBIGEO": "060807", "DEP": "CAJAMARCA", "PROV": "JAEN", "DIST": "POMAHUACA", "NOMAAA": "Jequetepeque Zarumilla", "NOMALA": "Motupe Olmos La Leche", "NOMCUENCA": "Cuenca Chamaya" }, "geometry": { "type": "Point", "coordinates": [ -79.32527, -5.916667 ] } },
{ "type": "Feature", "properties": { "CODIGO": "-", "NOMBRE": "Chilicocha", "COOLONGITU": -75.401806, "COOLATITUD": -12.696628, "NOMTIPO1": "Convencional", "NOMTIPO2": "Presa", "UBIGEO": "120108", "DEP": "JUNIN", "PROV": "HUANCAYO", "DIST": "CHONGOS ALTO", "NOMAAA": "Mantaro", "NOMALA": "Mantaro", "NOMCUENCA": "Cuenca Vilca" }, "geometry": { "type": "Point", "coordinates": [ -75.401806, -12.696628 ] } },
{ "type": "Feature", "properties": { "CODIGO": "131614001", "NOMBRE": "Aricota", "COOLONGITU": -70.32, "COOLATITUD": -17.37, "NOMTIPO1": "Convencional", "NOMTIPO2": "Presa", "UBIGEO": "230204", "DEP": "TACNA", "PROV": "CANDARAVE", "DIST": "CURIBAYA", "NOMAAA": "Caplina Ocoña", "NOMALA": "Caplina Locumba", "NOMCUENCA": "Medio Alto Locumba" }, "geometry": { "type": "Point", "coordinates": [ -70.32, -17.37 ] } },
{ "type": "Feature", "properties": { "CODIGO": "-", "NOMBRE": "Azulcocha", "COOLONGITU": -75.995937, "COOLATITUD": -11.942891, "NOMTIPO1": "Convencional", "NOMTIPO2": "Presa", "UBIGEO": "120405", "DEP": "JUNIN", "PROV": "JAUJA", "DIST": "CANCHAYLLO", "NOMAAA": "Mantaro", "NOMALA": "Mantaro", "NOMCUENCA": "Cuenca Pachacayo" }, "geometry": { "type": "Point", "coordinates": [ -75.995937, -11.942891 ] } },
{ "type": "Feature", "properties": { "CODIGO": "13414004", "NOMBRE": "Pillones", "COOLONGITU": -71.05, "COOLATITUD": -15.78, "NOMTIPO1": "Convencional", "NOMTIPO2": "Presa", "UBIGEO": "040514", "DEP": "AREQUIPA", "PROV": "CAYLLOMA", "DIST": "SAN ANTONIO DE CHUCA", "NOMAAA": "Caplina Ocoña", "NOMALA": "Chili", "NOMCUENCA": "Unidad Hidrografica 13499" }, "geometry": { "type": "Point", "coordinates": [ -71.05, -15.78 ] } },
{ "type": "Feature", "properties": { "CODIGO": "49949916001", "NOMBRE": "Sibinacocha", "COOLONGITU": -71.015783, "COOLATITUD": -13.92105, "NOMTIPO1": "Convencional", "NOMTIPO2": "Presa", "UBIGEO": "080605", "DEP": "CUSCO", "PROV": "CANCHIS", "DIST": "PITUMARCA", "NOMAAA": "Urubamba Vilcanota", "NOMALA": "Sicuani", "NOMCUENCA": "Cuenca Alto Urubamba" }, "geometry": { "type": "Point", "coordinates": [ -71.015783, -13.92105 ] } },
{ "type": "Feature", "properties": { "CODIGO": "13414001", "NOMBRE": "Condoroma", "COOLONGITU": -71.29, "COOLATITUD": -15.4, "NOMTIPO1": "Convencional", "NOMTIPO2": "Presa", "UBIGEO": "040504", "DEP": "AREQUIPA", "PROV": "CAYLLOMA", "DIST": "CALLALLI", "NOMAAA": "Caplina Ocoña", "NOMALA": "Colca Sihuas Chivay", "NOMCUENCA": "Unidad Hidrografica 13497" }, "geometry": { "type": "Point", "coordinates": [ -71.29, -15.4 ] } },
{ "type": "Feature", "properties": { "CODIGO": "000005", "NOMBRE": "Chiche", "COOLONGITU": -76.331664, "COOLATITUD": -11.563117, "NOMTIPO1": "Convencional", "NOMTIPO2": "Presa", "UBIGEO": "150709", "DEP": "LIMA", "PROV": "HUAROCHIRI", "DIST": "HUAROCHIRI", "NOMAAA": "Cañete Fortaleza", "NOMALA": "Chillon Rimac Lurin", "NOMCUENCA": "Cuenca Santa Eulalia" }, "geometry": { "type": "Point", "coordinates": [ -76.331664, -11.563117 ] } },
{ "type": "Feature", "properties": { "CODIGO": "000014", "NOMBRE": "Misha", "COOLONGITU": -76.317356, "COOLATITUD": -11.578256, "NOMTIPO1": "Convencional", "NOMTIPO2": "Presa", "UBIGEO": "150709", "DEP": "LIMA", "PROV": "HUAROCHIRI", "DIST": "HUAROCHIRI", "NOMAAA": "Cañete Fortaleza", "NOMALA": "Chillon Rimac Lurin", "NOMCUENCA": "Cuenca Santa Eulalia" }, "geometry": { "type": "Point", "coordinates": [ -76.317356, -11.578256 ] } },
{ "type": "Feature", "properties": { "CODIGO": "000011", "NOMBRE": "Manca", "COOLONGITU": -76.332767, "COOLATITUD": -11.683172, "NOMTIPO1": "Convencional", "NOMTIPO2": "Presa", "UBIGEO": "150709", "DEP": "LIMA", "PROV": "HUAROCHIRI", "DIST": "HUAROCHIRI", "NOMAAA": "Cañete Fortaleza", "NOMALA": "Chillon Rimac Lurin", "NOMCUENCA": "Cuenca Santa Eulalia" }, "geometry": { "type": "Point", "coordinates": [ -76.332767, -11.683172 ] } },
{ "type": "Feature", "properties": { "CODIGO": "000020", "NOMBRE": "Sacsa", "COOLONGITU": -76.462428, "COOLATITUD": -11.528367, "NOMTIPO1": "Convencional", "NOMTIPO2": "Presa", "UBIGEO": "150709", "DEP": "LIMA", "PROV": "HUAROCHIRI", "DIST": "HUAROCHIRI", "NOMAAA": "Cañete Fortaleza", "NOMALA": "Chillon Rimac Lurin", "NOMCUENCA": "Cuenca Santa Eulalia" }, "geometry": { "type": "Point", "coordinates": [ -76.462428, -11.528367 ] } },
{ "type": "Feature", "properties": { "CODIGO": "000017", "NOMBRE": "Pucro", "COOLONGITU": -76.337169, "COOLATITUD": -11.569981, "NOMTIPO1": "Convencional", "NOMTIPO2": "Presa", "UBIGEO": "150709", "DEP": "LIMA", "PROV": "HUAROCHIRI", "DIST": "HUAROCHIRI", "NOMAAA": "Cañete Fortaleza", "NOMALA": "Chillon Rimac Lurin", "NOMCUENCA": "Cuenca Santa Eulalia" }, "geometry": { "type": "Point", "coordinates": [ -76.337169, -11.569981 ] } },
{ "type": "Feature", "properties": { "CODIGO": "-", "NOMBRE": "Vichecocha", "COOLONGITU": -75.870675, "COOLATITUD": -11.879054, "NOMTIPO1": "Convencional", "NOMTIPO2": "Presa", "UBIGEO": "120405", "DEP": "JUNIN", "PROV": "JAUJA", "DIST": "CANCHAYLLO", "NOMAAA": "Mantaro", "NOMALA": "Mantaro", "NOMCUENCA": "Cuenca Pachacayo" }, "geometry": { "type": "Point", "coordinates": [ -75.870675, -11.879054 ] } },
{ "type": "Feature", "properties": { "CODIGO": "-", "NOMBRE": "Yurajcocha", "COOLONGITU": -75.499114, "COOLATITUD": -12.531326, "NOMTIPO1": "Convencional", "NOMTIPO2": "Presa", "UBIGEO": "120108", "DEP": "JUNIN", "PROV": "HUANCAYO", "DIST": "CHONGOS ALTO", "NOMAAA": "Mantaro", "NOMALA": "Mantaro", "NOMCUENCA": "Cuenca Vilca" }, "geometry": { "type": "Point", "coordinates": [ -75.499114, -12.531326 ] } },
{ "type": "Feature", "properties": { "CODIGO": "-", "NOMBRE": "Yuraccocha", "COOLONGITU": -75.843949, "COOLATITUD": -11.885926, "NOMTIPO1": "Convencional", "NOMTIPO2": "Presa", "UBIGEO": "120405", "DEP": "JUNIN", "PROV": "JAUJA", "DIST": "CANCHAYLLO", "NOMAAA": "Mantaro", "NOMALA": "Mantaro", "NOMCUENCA": "Cuenca Pachacayo" }, "geometry": { "type": "Point", "coordinates": [ -75.843949, -11.885926 ] } },
{ "type": "Feature", "properties": { "CODIGO": null, "NOMBRE": "Huascacocha", "COOLONGITU": -76.4112, "COOLATITUD": -11.0895, "NOMTIPO1": "Convencional", "NOMTIPO2": "Presa", "UBIGEO": "120807", "DEP": "JUNIN", "PROV": "YAULI", "DIST": "SANTA BARBARA DE CARHUACAYAN", "NOMAAA": "Mantaro", "NOMALA": "Mantaro", "NOMCUENCA": "Cuenca Conocancha" }, "geometry": { "type": "Point", "coordinates": [ -76.4112, -11.0895 ] } },
{ "type": "Feature", "properties": { "CODIGO": "017614001", "NOMBRE": "Lagunillas", "COOLONGITU": -70.71, "COOLATITUD": -15.72, "NOMTIPO1": "Convencional", "NOMTIPO2": "Presa", "UBIGEO": "210709", "DEP": "PUNO", "PROV": "LAMPA", "DIST": "SANTA LUCIA", "NOMAAA": "Titicaca", "NOMALA": "Juliaca", "NOMCUENCA": "Cuenca Cerrillos" }, "geometry": { "type": "Point", "coordinates": [ -70.71, -15.72 ] } },
{ "type": "Feature", "properties": { "CODIGO": "000002", "NOMBRE": "Antacoto", "COOLONGITU": -76.360864, "COOLATITUD": -11.409469, "NOMTIPO1": "Convencional", "NOMTIPO2": "Presa", "UBIGEO": "150709", "DEP": "LIMA", "PROV": "HUAROCHIRI", "DIST": "HUAROCHIRI", "NOMAAA": "Cañete Fortaleza", "NOMALA": "Chillon Rimac Lurin", "NOMCUENCA": "Unidad Hidrografica 499695" }, "geometry": { "type": "Point", "coordinates": [ -76.360864, -11.409469 ] } },
{ "type": "Feature", "properties": { "CODIGO": "000003", "NOMBRE": "Canchis", "COOLONGITU": -76.343869, "COOLATITUD": -11.571425, "NOMTIPO1": "Convencional", "NOMTIPO2": "Presa", "UBIGEO": "150709", "DEP": "LIMA", "PROV": "HUAROCHIRI", "DIST": "HUAROCHIRI", "NOMAAA": "Cañete Fortaleza", "NOMALA": "Chillon Rimac Lurin", "NOMCUENCA": "Cuenca Santa Eulalia" }, "geometry": { "type": "Point", "coordinates": [ -76.343869, -11.571425 ] } },
{ "type": "Feature", "properties": { "CODIGO": "-", "NOMBRE": "Ñahuincocha - Quillon", "COOLONGITU": -75.435313, "COOLATITUD": -12.592304, "NOMTIPO1": "Convencional", "NOMTIPO2": "Presa", "UBIGEO": "120108", "DEP": "JUNIN", "PROV": "HUANCAYO", "DIST": "CHONGOS ALTO", "NOMAAA": "Mantaro", "NOMALA": "Mantaro", "NOMCUENCA": "Cuenca Vilca" }, "geometry": { "type": "Point", "coordinates": [ -75.435313, -12.592304 ] } },
{ "type": "Feature", "properties": { "CODIGO": "000013", "NOMBRE": "Marcapomacocha", "COOLONGITU": -76.329283, "COOLATITUD": -11.4052, "NOMTIPO1": "Convencional", "NOMTIPO2": "Presa", "UBIGEO": "150709", "DEP": "LIMA", "PROV": "HUAROCHIRI", "DIST": "HUAROCHIRI", "NOMAAA": "Cañete Fortaleza", "NOMALA": "Chillon Rimac Lurin", "NOMCUENCA": "Unidad Hidrografica 499695" }, "geometry": { "type": "Point", "coordinates": [ -76.329283, -11.4052 ] } },
{ "type": "Feature", "properties": { "CODIGO": "000008", "NOMBRE": "Huampar", "COOLONGITU": -76.334208, "COOLATITUD": -11.618142, "NOMTIPO1": "Convencional", "NOMTIPO2": "Presa", "UBIGEO": "150709", "DEP": "LIMA", "PROV": "HUAROCHIRI", "DIST": "HUAROCHIRI", "NOMAAA": "Cañete Fortaleza", "NOMALA": "Chillon Rimac Lurin", "NOMCUENCA": "Cuenca Santa Eulalia" }, "geometry": { "type": "Point", "coordinates": [ -76.334208, -11.618142 ] } },
{ "type": "Feature", "properties": { "CODIGO": "000009", "NOMBRE": "Huasca", "COOLONGITU": -76.374278, "COOLATITUD": -11.563903, "NOMTIPO1": "Convencional", "NOMTIPO2": "Presa", "UBIGEO": "150709", "DEP": "LIMA", "PROV": "HUAROCHIRI", "DIST": "HUAROCHIRI", "NOMAAA": "Cañete Fortaleza", "NOMALA": "Chillon Rimac Lurin", "NOMCUENCA": "Cuenca Santa Eulalia" }, "geometry": { "type": "Point", "coordinates": [ -76.374278, -11.563903 ] } },
{ "type": "Feature", "properties": { "CODIGO": "CHH-VQ", "NOMBRE": "Quisa", "COOLONGITU": -76.504719, "COOLATITUD": -11.29015, "NOMTIPO1": "Convencional", "NOMTIPO2": "Presa", "UBIGEO": "150610", "DEP": "LIMA", "PROV": "HUARAL", "DIST": "SANTA CRUZ DE ANDAMARCA", "NOMAAA": "Cañete Fortaleza", "NOMALA": "Chancay Huaral", "NOMCUENCA": "Cuenca Baños" }, "geometry": { "type": "Point", "coordinates": [ -76.504719, -11.29015 ] } },
{ "type": "Feature", "properties": { "CODIGO": "131814001", "NOMBRE": "Pasto Grande", "COOLONGITU": -70.23, "COOLATITUD": -16.72, "NOMTIPO1": "Convencional", "NOMTIPO2": "Presa", "UBIGEO": "180102", "DEP": "MOQUEGUA", "PROV": "MARISCAL NIETO", "DIST": "CARUMAS", "NOMAAA": "Caplina Ocoña", "NOMALA": "Moquegua", "NOMCUENCA": "Cuenca Coralaque" }, "geometry": { "type": "Point", "coordinates": [ -70.23, -16.72 ] } },
{ "type": "Feature", "properties": { "CODIGO": "13814001", "NOMBRE": "Poechos", "COOLONGITU": -80.52, "COOLATITUD": -4.68, "NOMTIPO1": "Convencional", "NOMTIPO2": "Presa", "UBIGEO": "200604", "DEP": "PIURA", "PROV": "SULLANA", "DIST": "LANCONES", "NOMAAA": "Jequetepeque Zarumilla", "NOMALA": "Chira", "NOMCUENCA": "Unidad Hidrografica 13819" }, "geometry": { "type": "Point", "coordinates": [ -80.52, -4.68 ] } },
{ "type": "Feature", "properties": { "CODIGO": "000022", "NOMBRE": "Tucto", "COOLONGITU": -76.275069, "COOLATITUD": -11.480058, "NOMTIPO1": "Convencional", "NOMTIPO2": "Presa", "UBIGEO": "150709", "DEP": "LIMA", "PROV": "HUAROCHIRI", "DIST": "HUAROCHIRI", "NOMAAA": "Cañete Fortaleza", "NOMALA": "Chillon Rimac Lurin", "NOMCUENCA": "Unidad Hidrografica 499695" }, "geometry": { "type": "Point", "coordinates": [ -76.275069, -11.480058 ] } },
{ "type": "Feature", "properties": { "CODIGO": "1377414001", "NOMBRE": "Gallito Ciego", "COOLONGITU": -79.21, "COOLATITUD": -7.23, "NOMTIPO1": "Convencional", "NOMTIPO2": "Presa", "UBIGEO": "130703", "DEP": "LA LIBERTAD", "PROV": "PACASMAYO", "DIST": "JEQUETEPEQUE", "NOMAAA": "Jequetepeque Zarumilla", "NOMALA": "Jequetepeque", "NOMCUENCA": "Bajo Jequetepeque" }, "geometry": { "type": "Point", "coordinates": [ -79.21, -7.23 ] } },
{ "type": "Feature", "properties": { "CODIGO": "-", "NOMBRE": "Tembladera", "COOLONGITU": -75.987824, "COOLATITUD": -11.949674, "NOMTIPO1": "Convencional", "NOMTIPO2": "Presa", "UBIGEO": "120405", "DEP": "JUNIN", "PROV": "JAUJA", "DIST": "CANCHAYLLO", "NOMAAA": "Mantaro", "NOMALA": "Mantaro", "NOMCUENCA": "Cuenca Pachacayo" }, "geometry": { "type": "Point", "coordinates": [ -75.987824, -11.949674 ] } },
{ "type": "Feature", "properties": { "CODIGO": "000006", "NOMBRE": "Huachua", "COOLONGITU": -76.336875, "COOLATITUD": -11.629447, "NOMTIPO1": "Convencional", "NOMTIPO2": "Presa", "UBIGEO": "150709", "DEP": "LIMA", "PROV": "HUAROCHIRI", "DIST": "HUAROCHIRI", "NOMAAA": "Cañete Fortaleza", "NOMALA": "Chillon Rimac Lurin", "NOMCUENCA": "Cuenca Santa Eulalia" }, "geometry": { "type": "Point", "coordinates": [ -76.336875, -11.629447 ] } },
{ "type": "Feature", "properties": { "CODIGO": "-", "NOMBRE": "Carhuacocha", "COOLONGITU": -75.941864, "COOLATITUD": -11.935087, "NOMTIPO1": "Convencional", "NOMTIPO2": "Presa", "UBIGEO": "120405", "DEP": "JUNIN", "PROV": "JAUJA", "DIST": "CANCHAYLLO", "NOMAAA": "Mantaro", "NOMALA": "Mantaro", "NOMCUENCA": "Cuenca Pachacayo" }, "geometry": { "type": "Point", "coordinates": [ -75.941864, -11.935087 ] } },
{ "type": "Feature", "properties": { "CODIGO": "99999", "NOMBRE": "Ccaracocha", "COOLONGITU": -75.0844, "COOLATITUD": -13.3495, "NOMTIPO1": "Convencional", "NOMTIPO2": "Presa", "UBIGEO": "090607", "DEP": "HUANCAVELICA", "PROV": "HUAYTARA", "DIST": "PILPICHACA", "NOMAAA": "Chaparra Chincha", "NOMALA": "Ica", "NOMCUENCA": "Cuenca Alto Pampas" }, "geometry": { "type": "Point", "coordinates": [ -75.0844, -13.3495 ] } },
{ "type": "Feature", "properties": { "CODIGO": "-", "NOMBRE": "Huaylacancha", "COOLONGITU": -75.911111, "COOLATITUD": -11.958956, "NOMTIPO1": "Convencional", "NOMTIPO2": "Presa", "UBIGEO": "120405", "DEP": "JUNIN", "PROV": "JAUJA", "DIST": "CANCHAYLLO", "NOMAAA": "Mantaro", "NOMALA": "Mantaro", "NOMCUENCA": "Cuenca Pachacayo" }, "geometry": { "type": "Point", "coordinates": [ -75.911111, -11.958956 ] } },
{ "type": "Feature", "properties": { "CODIGO": "191114", "NOMBRE": "Represa Jarumas", "COOLONGITU": -69.9572, "COOLATITUD": -17.3617, "NOMTIPO1": "Convencional", "NOMTIPO2": "Presa", "UBIGEO": "230408", "DEP": "TACNA", "PROV": "TARATA", "DIST": "TICACO", "NOMAAA": "Caplina Ocoña", "NOMALA": "Caplina Locumba", "NOMCUENCA": "Alto Sama" }, "geometry": { "type": "Point", "coordinates": [ -69.9572, -17.3617 ] } },
{ "type": "Feature", "properties": { "CODIGO": "13414002", "NOMBRE": "Pañe", "COOLONGITU": -71.07, "COOLATITUD": -15.42, "NOMTIPO1": "Convencional", "NOMTIPO2": "Presa", "UBIGEO": "040101", "DEP": "AREQUIPA", "PROV": "AREQUIPA", "DIST": "AREQUIPA", "NOMAAA": "Caplina Ocoña", "NOMALA": "Chili", "NOMCUENCA": "Cuenca Unidad Hidrografica 13498" }, "geometry": { "type": "Point", "coordinates": [ -71.07, -15.42 ] } },
{ "type": "Feature", "properties": { "CODIGO": "-", "NOMBRE": "Yanacocha Palcan", "COOLONGITU": -76.285987, "COOLATITUD": -11.118744, "NOMTIPO1": "Convencional", "NOMTIPO2": "Presa", "UBIGEO": "190104", "DEP": "PASCO", "PROV": "PASCO", "DIST": "HUAYLLAY", "NOMAAA": "Mantaro", "NOMALA": "Pasco", "NOMCUENCA": "Unidad Hidrografica 499697" }, "geometry": { "type": "Point", "coordinates": [ -76.285987, -11.118744 ] } },
{ "type": "Feature", "properties": { "CODIGO": "-", "NOMBRE": "Lago Junín", "COOLONGITU": -76.27906, "COOLATITUD": -10.923821, "NOMTIPO1": "Convencional", "NOMTIPO2": "Presa", "UBIGEO": "120503", "DEP": "JUNIN", "PROV": "JUNIN", "DIST": "ONDORES", "NOMAAA": "Mantaro", "NOMALA": "Mantaro", "NOMCUENCA": "Unidad Hidrografica 499697" }, "geometry": { "type": "Point", "coordinates": [ -76.27906, -10.923821 ] } },
{ "type": "Feature", "properties": { "CODIGO": "499814001", "NOMBRE": "Choclococha", "COOLONGITU": -75.1, "COOLATITUD": -13.25, "NOMTIPO1": "Convencional", "NOMTIPO2": "Presa", "UBIGEO": "090607", "DEP": "HUANCAVELICA", "PROV": "HUAYTARA", "DIST": "PILPICHACA", "NOMAAA": "Chaparra Chincha", "NOMALA": "Ica", "NOMCUENCA": "Cuenca Alto Pampas" }, "geometry": { "type": "Point", "coordinates": [ -75.1, -13.25 ] } },
{ "type": "Feature", "properties": { "CODIGO": "-", "NOMBRE": "Cuchoquesera", "COOLONGITU": -74.330705, "COOLATITUD": -13.43907, "NOMTIPO1": "Convencional", "NOMTIPO2": "Presa", "UBIGEO": "050202", "DEP": "AYACUCHO", "PROV": "CANGALLO", "DIST": "CHUSCHI", "NOMAAA": "Mantaro", "NOMALA": "Ayacucho", "NOMCUENCA": "Cuenca Huarpa" }, "geometry": { "type": "Point", "coordinates": [ -74.330705, -13.43907 ] } },
{ "type": "Feature", "properties": { "CODIGO": "191314", "NOMBRE": "Represa Paucarani", "COOLONGITU": -69.7728, "COOLATITUD": -17.5316, "NOMTIPO1": "Convencional", "NOMTIPO2": "Presa", "UBIGEO": "230101", "DEP": "TACNA", "PROV": "TACNA", "DIST": "TACNA", "NOMAAA": "Caplina Ocoña", "NOMALA": "Caplina Locumba", "NOMCUENCA": "Cuenca Ushusuma" }, "geometry": { "type": "Point", "coordinates": [ -69.7728, -17.5316 ] } },
{ "type": "Feature", "properties": { "CODIGO": "1377614001", "NOMBRE": "Tinajones", "COOLONGITU": -79.44, "COOLATITUD": -6.65, "NOMTIPO1": "Convencional", "NOMTIPO2": "Presa", "UBIGEO": "140102", "DEP": "LAMBAYEQUE", "PROV": "CHICLAYO", "DIST": "CHONGOYAPE", "NOMAAA": "Jequetepeque Zarumilla", "NOMALA": "Chancay Lambayeque", "NOMCUENCA": "Medio Bajo Chancay-Lambayeque" }, "geometry": { "type": "Point", "coordinates": [ -79.44, -6.65 ] } },
{ "type": "Feature", "properties": { "CODIGO": "202503", "NOMBRE": "Viconga", "COOLONGITU": -76.843889, "COOLATITUD": -10.409167, "NOMTIPO1": "Convencional", "NOMTIPO2": "Presa", "UBIGEO": "150301", "DEP": "LIMA", "PROV": "CAJATAMBO", "DIST": "CAJATAMBO", "NOMAAA": "Cañete Fortaleza", "NOMALA": "Barranca", "NOMCUENCA": "Cuenca Rapay" }, "geometry": { "type": "Point", "coordinates": [ -76.843889, -10.409167 ] } },
{ "type": "Feature", "properties": { "CODIGO": "000004", "NOMBRE": "Carpa", "COOLONGITU": -76.3783, "COOLATITUD": -11.540964, "NOMTIPO1": "Convencional", "NOMTIPO2": "Presa", "UBIGEO": "150709", "DEP": "LIMA", "PROV": "HUAROCHIRI", "DIST": "HUAROCHIRI", "NOMAAA": "Cañete Fortaleza", "NOMALA": "Chillon Rimac Lurin", "NOMCUENCA": "Cuenca Santa Eulalia" }, "geometry": { "type": "Point", "coordinates": [ -76.3783, -11.540964 ] } },
{ "type": "Feature", "properties": { "CODIGO": "1349814001", "NOMBRE": "Bamputañe", "COOLONGITU": -71.022418, "COOLATITUD": -15.426538, "NOMTIPO1": "Convencional", "NOMTIPO2": "Presa", "UBIGEO": "040101", "DEP": "AREQUIPA", "PROV": "AREQUIPA", "DIST": "AREQUIPA", "NOMAAA": "Caplina Ocoña", "NOMALA": "Chili", "NOMCUENCA": "Cuenca Unidad Hidrografica 13498" }, "geometry": { "type": "Point", "coordinates": [ -71.022418, -15.426538 ] } },
{ "type": "Feature", "properties": { "CODIGO": "13814002", "NOMBRE": "San Lorenzo (Presa)", "COOLONGITU": -80.2, "COOLATITUD": -4.68, "NOMTIPO1": "Convencional", "NOMTIPO2": "Presa", "UBIGEO": "200111", "DEP": "PIURA", "PROV": "PIURA", "DIST": "LAS LOMAS", "NOMAAA": "Jequetepeque Zarumilla", "NOMALA": "San Lorenzo", "NOMCUENCA": "Cuenca Chipillico" }, "geometry": { "type": "Point", "coordinates": [ -80.2, -4.68 ] } },
{ "type": "Feature", "properties": { "CODIGO": "000016", "NOMBRE": "Piticuli", "COOLONGITU": -76.439281, "COOLATITUD": -11.549981, "NOMTIPO1": "Convencional", "NOMTIPO2": "Presa", "UBIGEO": "150709", "DEP": "LIMA", "PROV": "HUAROCHIRI", "DIST": "HUAROCHIRI", "NOMAAA": "Cañete Fortaleza", "NOMALA": "Chillon Rimac Lurin", "NOMCUENCA": "Cuenca Santa Eulalia" }, "geometry": { "type": "Point", "coordinates": [ -76.439281, -11.549981 ] } },
{ "type": "Feature", "properties": { "CODIGO": "000018", "NOMBRE": "Quisha", "COOLONGITU": -76.382628, "COOLATITUD": -11.524064, "NOMTIPO1": "Convencional", "NOMTIPO2": "Presa", "UBIGEO": "150709", "DEP": "LIMA", "PROV": "HUAROCHIRI", "DIST": "HUAROCHIRI", "NOMAAA": "Cañete Fortaleza", "NOMALA": "Chillon Rimac Lurin", "NOMCUENCA": "Cuenca Santa Eulalia" }, "geometry": { "type": "Point", "coordinates": [ -76.382628, -11.524064 ] } }
]
}
